start_ip,end_ip,join_key,city,region,country,latitude,longitude,postal_code,timezone
101.73.240.0,101.73.240.127,101.73.0.0,Youfang,Hebei,CN,37.01144,115.76967,,Asia/Shanghai
105.105.30.148,105.105.30.151,105.105.0.0,Tolga,Biskra,DZ,34.6783,5.2874,07051,Africa/Algiers
101.205.12.155,101.205.12.156,101.205.0.0,Qingdao,Shandong,CN,36.06488,120.38042,,Asia/Shanghai
103.109.53.0,103.109.53.127,103.109.0.0,Dinājpur,Rangpur Division,BD,25.62745,88.63779,5220,Asia/Dhaka
105.42.211.128,105.42.211.143,105.42.0.0,Samālūţ,Minya,EG,28.31214,30.71007,,Africa/Cairo
105.163.31.144,105.163.31.155,105.163.0.0,Nairobi,Nairobi Area,KE,-1.28333,36.81667,,Africa/Nairobi
102.159.64.45,102.159.64.45,102.159.0.0,Sfax,Şafāqis,TN,34.74056,10.76028,,Africa/Tunis
1.24.164.248,1.24.165.15,1.24.0.0,Tianjin,Tianjin,CN,39.14222,117.17667,,Asia/Shanghai
104.190.78.0,104.190.78.255,104.190.0.0,San Jose,California,US,37.33939,-121.89496,95103,America/Los_Angeles
105.9.75.32,105.9.75.175,105.9.0.0,Cape Town,Western Cape,ZA,-33.9778,18.61668,7100,Africa/Johannesburg
104.48.69.20,104.48.69.21,104.48.0.0,Youngstown,Ohio,US,41.0704,-80.6931,44511,America/New_York
105.33.104.32,105.33.104.63,105.33.0.0,Fāraskūr,Damietta,EG,31.32977,31.71507,,Africa/Cairo
1.200.178.150,1.200.178.185,1.200.0.0,Kaohsiung,Takao,TW,22.61626,120.31333,,Asia/Taipei
103.253.69.0,103.253.69.255,103.253.0.0,Jakarta,Jakarta,ID,-6.21462,106.84513,,Asia/Jakarta
105.9.67.232,105.9.67.255,105.9.0.0,Cape Town,Western Cape,ZA,-33.92584,18.42322,7945,Africa/Johannesburg
104.28.38.179,104.28.38.180,104.28.0.0,Abu Dhabi,Abu Dhabi,AE,24.45118,54.39696,,Asia/Dubai
102.187.89.148,102.187.89.165,102.187.0.0,Ţanţā,Gharbia,EG,30.78847,31.00192,,Africa/Cairo
102.109.180.114,102.109.180.115,102.109.0.0,Sousse,Sūsah,TN,35.82539,10.63699,,Africa/Tunis
105.103.76.228,105.103.76.233,105.103.0.0,Bejaïa,Béjaïa,DZ,36.7116,5.0135,06062,Africa/Algiers
104.242.67.0,104.242.67.255,104.242.0.0,Toronto,Ontario,CA,43.9007,-79.2175,L6B,America/Toronto
1.180.134.224,1.180.134.255,1.180.0.0,Shanghai,Shanghai,CN,31.22222,121.45806,,Asia/Shanghai
101.189.87.64,101.189.87.91,101.189.0.0,Perth,Western Australia,AU,-31.94325,115.86335,6003,Australia/Perth
105.33.181.64,105.33.181.127,105.33.0.0,Port Said,Port Said,EG,31.26531,32.3019,,Africa/Cairo
104.240.46.77,104.240.46.78,104.240.0.0,Kayenta,Arizona,US,36.72778,-110.25458,86033,America/Denver
105.72.40.16,105.72.40.17,105.72.0.0,Tangier,Tanger-Tetouan-Al Hoceima,MA,35.76727,-5.79975,,Africa/Casablanca
101.25.129.222,101.25.129.231,101.25.0.0,Tianjin,Tianjin,CN,39.14222,117.17667,,Asia/Shanghai
101.180.230.136,101.180.230.255,101.180.0.0,Melbourne,Victoria,AU,-37.814,144.96332,3000,Australia/Melbourne
105.92.236.120,105.92.236.120,105.92.0.0,Hurghada,Red Sea,EG,27.25738,33.81291,,Africa/Cairo
102.52.138.208,102.52.138.223,102.52.0.0,Agadir,Souss-Massa,MA,30.42018,-9.59815,,Africa/Casablanca
105.39.94.128,105.39.94.255,105.39.0.0,Giza,Giza,EG,30.00944,31.20861,,Africa/Cairo
1.195.224.88,1.195.224.89,1.195.0.0,Henan,Heilongjiang,CN,47.9658,126.01958,,Asia/Shanghai
102.106.49.34,102.106.49.34,102.106.0.0,Djemmal,Al Munastīr,TN,35.62231,10.75696,,Africa/Tunis
1.52.56.44,1.52.56.47,1.52.0.0,Huế,Thừa Thiên-Huế,VN,16.4619,107.59546,49198,Asia/Bangkok
1.189.71.66,1.189.71.69,1.189.0.0,Tianjin,Tianjin,CN,39.14222,117.17667,,Asia/Shanghai
102.187.34.168,102.187.34.175,102.187.0.0,Rosetta,Beheira,EG,31.39951,30.41718,,Africa/Cairo
102.5.121.244,102.5.121.245,102.5.0.0,Makueni Boma,Makueni,KE,-1.80388,37.62405,,Africa/Nairobi
1.30.65.160,1.30.65.175,1.30.0.0,Wenzhou,Zhejiang,CN,27.99942,120.66682,,Asia/Shanghai
1.112.120.188,1.112.120.191,1.112.0.0,Osaka,Ōsaka,JP,34.615,135.4209,559-0032,Asia/Tokyo
101.174.79.106,101.174.79.107,101.174.0.0,Upper Crystal Creek,New South Wales,AU,-28.29967,153.30142,2484,Australia/Sydney
104.157.254.156,104.157.254.199,104.157.0.0,Barrie,Ontario,CA,44.40011,-79.66634,L9X,America/Toronto
101.205.69.236,101.205.69.239,101.205.0.0,Qingdao,Shandong,CN,36.06488,120.38042,,Asia/Shanghai
103.210.40.160,103.210.40.163,103.210.0.0,Chikodi,Karnataka,IN,16.42898,74.58591,591213,Asia/Kolkata
103.70.62.128,103.70.62.255,103.70.0.0,Aizawl,Mizoram,IN,23.72894,92.71791,796005,Asia/Kolkata
101.65.189.148,101.65.189.149,101.65.0.0,Wenzhou,Zhejiang,CN,27.99942,120.66682,,Asia/Shanghai
102.157.22.56,102.157.22.63,102.157.0.0,Tunis,Tūnis,TN,36.81897,10.16579,,Africa/Tunis
102.47.73.100,102.47.73.103,102.47.0.0,Giza,Giza,EG,30.00944,31.20861,,Africa/Cairo
105.60.44.192,105.60.44.255,105.60.0.0,Kericho,Kericho,KE,-0.36774,35.28314,,Africa/Nairobi
1.207.97.33,1.207.97.33,1.207.0.0,Chengdu,Sichuan,CN,30.66667,104.06667,,Asia/Shanghai
101.9.190.0,101.9.190.95,101.9.0.0,Kaohsiung,Takao,TW,22.61626,120.31333,,Asia/Taipei
101.249.101.160,101.249.101.160,101.249.0.0,Bayi,Tibet,CN,29.65812,94.35892,,Asia/Shanghai
104.153.214.176,104.153.214.231,104.153.0.0,Orangeville,Ontario,CA,43.9168,-80.09967,L9V,America/Toronto
105.165.215.32,105.165.215.63,105.165.0.0,Nairobi,Nairobi Area,KE,-1.28333,36.81667,,Africa/Nairobi
102.5.209.224,102.5.209.247,102.5.0.0,Nairobi,Nairobi Area,KE,-1.28333,36.81667,,Africa/Nairobi
102.170.182.240,102.170.182.255,102.170.0.0,Sousse,Sūsah,TN,35.82539,10.63699,,Africa/Tunis
104.44.236.64,104.44.236.64,104.44.0.0,Redmond,Washington,US,47.67399,-122.12151,98052,America/Los_Angeles
103.214.128.128,103.214.128.135,103.214.0.0,Jaipur,Rajasthan,IN,26.91962,75.78781,302001,Asia/Kolkata
101.161.88.108,101.161.88.109,101.161.0.0,Frankston East,Victoria,AU,-38.1926,145.09285,3930,Australia/Melbourne
103.172.0.0,103.172.0.127,103.172.0.0,Pasuruan,Lampung,ID,-5.7463,105.67707,,Asia/Jakarta
105.110.45.148,105.110.45.149,105.110.0.0,Constantine,Constantine,DZ,36.343,6.6462,25006,Africa/Algiers
1.190.244.168,1.190.244.171,1.190.0.0,Harbin,Heilongjiang,CN,45.75,126.65,,Asia/Shanghai
1.183.64.175,1.183.64.176,1.183.0.0,Shanghai,Shanghai,CN,31.22222,121.45806,,Asia/Shanghai
105.203.22.48,105.203.22.71,105.203.0.0,Al Minshāh,Sohag,EG,26.4775,31.80394,,Africa/Cairo
101.53.212.238,101.53.212.238,101.53.0.0,Auckland,Auckland,NZ,-36.84853,174.76349,1010,Pacific/Auckland
100.41.138.230,100.41.138.233,100.41.0.0,Harrisburg,Pennsylvania,US,40.2737,-76.88442,17102,America/New_York
101.79.166.0,101.79.166.255,101.79.0.0,Bắc Kạn,Bắc Kạn,VN,22.14701,105.83481,23150,Asia/Bangkok
102.157.19.38,102.157.19.53,102.157.0.0,Tunis,Tūnis,TN,36.81897,10.16579,,Africa/Tunis
1.31.22.138,1.31.22.139,1.31.0.0,Qingdao,Shandong,CN,36.06488,120.38042,,Asia/Shanghai
105.104.72.174,105.104.72.191,105.104.0.0,Annaba,Annaba,DZ,36.9089,7.67,23014,Africa/Algiers
101.23.113.120,101.23.113.131,101.23.0.0,Tianjin,Tianjin,CN,39.14222,117.17667,,Asia/Shanghai
101.43.52.248,101.43.53.15,101.43.0.0,Shanghai,Shanghai,CN,31.22222,121.45806,,Asia/Shanghai
105.88.97.224,105.88.97.231,105.88.0.0,Cairo,Cairo,EG,30.06263,31.24967,,Africa/Cairo
1.59.122.180,1.59.122.186,1.59.0.0,Beijing,Beijing,CN,39.9075,116.39723,,Asia/Shanghai
104.235.67.112,104.235.67.117,104.235.0.0,Hinckley,Illinois,US,41.76892,-88.64091,60520,America/Chicago
101.191.85.52,101.191.85.55,101.191.0.0,Bathurst,New South Wales,AU,-33.41665,149.5806,2795,Australia/Sydney
101.58.67.214,101.58.67.215,101.58.0.0,Florence,Tuscany,IT,43.77925,11.24626,50100,Europe/Rome
1.2.243.160,1.2.243.179,1.2.0.0,Uthai Thani,Uthai Thani,TH,15.3667,100.05,61000,Asia/Bangkok
105.82.149.68,105.82.149.71,105.82.0.0,Asyūţ,Asyut,EG,27.18096,31.18368,,Africa/Cairo
101.165.224.232,101.165.224.233,101.165.0.0,Mooroopna,Victoria,AU,-36.4,145.35,3629,Australia/Melbourne
102.150.105.208,102.150.106.239,102.150.0.0,Lusaka,Lusaka,ZM,-15.40669,28.28713,,Africa/Lusaka
101.117.219.0,101.117.219.255,101.117.0.0,Melbourne,Victoria,AU,-37.814,144.96332,3000,Australia/Melbourne
102.185.209.240,102.185.209.243,102.185.0.0,Alexandria,Alexandria,EG,31.20176,29.91582,,Africa/Cairo
101.182.164.192,101.182.164.199,101.182.0.0,Urraween,Queensland,AU,-25.29522,152.82206,4655,Australia/Brisbane
103.94.97.192,103.94.97.223,103.94.0.0,Sampang,East Java,ID,-7.1872,113.2394,,Asia/Jakarta
1.158.222.240,1.158.222.243,1.158.0.0,Arno Bay,South Australia,AU,-33.9,136.56667,5603,Australia/Adelaide
101.75.114.0,101.75.114.23,101.75.0.0,Tangshan,Hebei,CN,39.63333,118.18333,,Asia/Shanghai
103.161.185.211,103.161.185.211,103.161.0.0,Demak,Central Java,ID,-6.8909,110.6396,,Asia/Jakarta
105.36.95.236,105.36.95.239,105.36.0.0,Al Maḩallah al Kubrá,Gharbia,EG,30.97063,31.1669,,Africa/Cairo
104.79.208.0,104.79.239.255,104.79.0.0,Tel Aviv,Tel Aviv,IL,32.08088,34.78057,,Asia/Jerusalem
1.158.145.176,1.158.145.179,1.158.0.0,Renmark North,South Australia,AU,-34.12554,140.71269,5341,Australia/Adelaide
105.109.214.168,105.109.215.103,105.109.0.0,Constantine,Constantine,DZ,36.343,6.6462,25006,Africa/Algiers
102.2.192.16,102.2.192.17,102.2.0.0,Mombasa,Mombasa,KE,-4.05466,39.66359,,Africa/Nairobi
101.249.74.237,101.249.74.238,101.249.0.0,Rikaze,Tibet,CN,29.25,88.88333,,Asia/Shanghai
1.4.136.72,1.4.136.83,1.4.0.0,Warichaphum,Sakon Nakhon,TH,17.29409,103.63816,47150,Asia/Bangkok
104.220.160.0,104.220.160.255,104.220.0.0,Sacramento,California,US,38.6093,-121.4443,95815,America/Los_Angeles
101.175.231.32,101.175.231.33,101.175.0.0,Silverwater,New South Wales,AU,-33.0711,151.5871,2267,Australia/Sydney
102.168.154.132,102.168.154.135,102.168.0.0,La Mohammedia,Tūnis,TN,36.67446,10.15633,,Africa/Tunis
104.28.34.81,104.28.34.82,104.28.0.0,Rabat,Rabat-Salé-Kénitra,MA,34.01325,-6.83255,,Africa/Casablanca
103.144.14.86,103.144.14.87,103.144.0.0,Makassar,South Sulawesi,ID,-5.14861,119.43194,,Asia/Makassar
102.157.154.128,102.157.154.143,102.157.0.0,Kairouan,Kairouan,TN,35.6781,10.09633,,Africa/Tunis
104.192.104.188,104.192.104.188,104.192.0.0,Jacksonville,Illinois,US,39.73394,-90.22901,62650,America/Chicago
102.191.133.102,102.191.133.109,102.191.0.0,Cairo,Cairo,EG,30.06263,31.24967,,Africa/Cairo
101.136.92.160,101.136.92.171,101.136.0.0,Taichung,Taiwan,TW,24.1469,120.6839,,Asia/Taipei
102.122.49.48,102.122.49.255,102.122.0.0,Khartoum,Khartoum,SD,15.55177,32.53241,,Africa/Khartoum
1.220.27.192,1.220.30.255,1.220.0.0,Seoul,Seoul,KR,37.566,126.9784,03141,Asia/Seoul
1.156.56.192,1.156.56.193,1.156.0.0,Sydney,New South Wales,AU,-34.00957,151.0617,2226,Australia/Sydney
1.50.69.227,1.50.69.227,1.50.0.0,Hangzhou,Zhejiang,CN,30.29365,120.16142,,Asia/Shanghai
101.166.32.66,101.166.32.66,101.166.0.0,Sanctuary Point,New South Wales,AU,-35.10361,150.62667,2540,Australia/Sydney
102.191.251.12,102.191.251.15,102.191.0.0,Hurghada,Red Sea,EG,27.25738,33.81291,,Africa/Cairo
103.68.111.64,103.68.111.127,103.68.0.0,Xinying,Taiwan,TW,23.30694,120.31056,,Asia/Taipei
104.50.169.48,104.50.169.63,104.50.0.0,Palm Bay,Florida,US,28.03446,-80.58866,32910,America/New_York
102.191.17.183,102.191.17.183,102.191.0.0,Suez,Suez,EG,29.97371,32.52627,,Africa/Cairo
103.163.226.0,103.163.227.255,103.163.0.0,Singapore,,SG,1.28967,103.85007,018989,Asia/Singapore
103.180.208.0,103.180.209.255,103.180.0.0,Melbourne,Victoria,AU,-37.83385,144.95945,3205,Australia/Melbourne
103.210.67.30,103.210.67.31,103.210.0.0,Mumbai,Maharashtra,IN,19.07283,72.88261,400070,Asia/Kolkata
104.1.19.168,104.1.19.175,104.1.0.0,Howard,Wisconsin,US,44.5436,-88.08816,54303,America/Chicago
101.50.206.0,101.50.206.127,101.50.0.0,Inazawa,Aichi,JP,35.25,136.78333,492-0000,Asia/Tokyo
101.183.144.176,101.183.144.191,101.183.0.0,Trinity Park,Queensland,AU,-16.80684,145.70549,4879,Australia/Brisbane
101.249.45.254,101.249.46.7,101.249.0.0,Bayi,Tibet,CN,29.65812,94.35892,,Asia/Shanghai
101.51.172.216,101.51.172.231,101.51.0.0,Pattaya,Chon Buri,TH,12.93333,100.88333,76130,Asia/Bangkok
105.105.87.188,105.105.87.189,105.105.0.0,Batna,Batna,DZ,35.4913,6.0986,05093,Africa/Algiers
102.185.151.131,102.185.151.131,102.185.0.0,Zagazig,Sharqia,EG,30.58768,31.502,,Africa/Cairo
104.28.88.88,104.28.88.92,104.28.0.0,Lagos,Lagos,NG,6.45407,3.39467,,Africa/Lagos
101.116.169.53,101.116.169.55,101.116.0.0,Melbourne,Victoria,AU,-37.82225,145.15063,3130,Australia/Melbourne
101.248.219.118,101.248.219.119,101.248.0.0,Nanjing,Jiangsu,CN,32.06167,118.77778,,Asia/Shanghai
105.156.110.136,105.156.110.143,105.156.0.0,Marrakesh,Marrakesh-Safi,MA,31.63416,-7.99994,,Africa/Casablanca
102.25.249.128,102.25.249.149,102.25.0.0,Tunis,Tūnis,TN,36.81897,10.16579,,Africa/Tunis
103.166.11.132,103.166.11.191,103.166.0.0,Singapore,,SG,1.28967,103.85007,018989,Asia/Singapore
104.96.169.0,104.96.169.255,104.96.0.0,Auckland,Auckland,NZ,-36.84853,174.76349,1010,Pacific/Auckland
1.0.92.238,1.0.92.247,1.0.0.0,Matsue,Shimane,JP,35.4818,133.0525,690-0872,Asia/Tokyo
101.69.48.78,101.69.48.81,101.69.0.0,Beijing,Beijing,CN,39.9075,116.39723,,Asia/Shanghai
1.187.127.4,1.187.127.5,1.187.0.0,Pune,Maharashtra,IN,18.51957,73.85535,411001,Asia/Kolkata
102.189.178.61,102.189.178.61,102.189.0.0,Quwaysinā,Monufia,EG,30.56482,31.15777,,Africa/Cairo
102.149.52.208,102.149.53.78,102.149.0.0,Lusaka,Lusaka,ZM,-15.40669,28.28713,,Africa/Lusaka
103.52.222.104,103.52.222.107,103.52.0.0,Kolkata,West Bengal,IN,22.5333,88.3917,700046,Asia/Kolkata
104.128.205.172,104.128.205.181,104.128.0.0,Moline,Illinois,US,41.5067,-90.51513,61266,America/Chicago
103.160.2.28,103.160.2.45,103.160.0.0,Hanoi,Hanoi,VN,21.0245,105.84117,10000,Asia/Bangkok
105.109.178.91,105.109.178.91,105.109.0.0,Bordj Bou Arréridj,Bordj Bou Arréridj,DZ,35.9792,4.7474,34017,Africa/Algiers
102.169.38.36,102.169.38.39,102.169.0.0,Mahdia,Al Mahdīyah,TN,35.50472,11.06222,,Africa/Tunis
1.82.187.230,1.82.188.6,1.82.0.0,Hangzhou,Zhejiang,CN,30.29365,120.16142,,Asia/Shanghai
101.185.136.204,101.185.136.247,101.185.0.0,Perth,Western Australia,AU,-32.05,115.9833,6989,Australia/Perth
102.120.87.144,102.120.87.191,102.120.0.0,Wad Medani,Al Jazīrah,SD,14.40118,33.51989,,Africa/Khartoum
101.187.228.141,101.187.228.141,101.187.0.0,Sydney,New South Wales,AU,-33.86785,151.20732,1001,Australia/Sydney
101.16.84.92,101.16.84.93,101.16.0.0,Chengdu,Sichuan,CN,30.66667,104.06667,,Asia/Shanghai
102.106.223.88,102.106.223.95,102.106.0.0,Sfax,Şafāqis,TN,34.74056,10.76028,,Africa/Tunis
102.158.89.92,102.158.89.111,102.158.0.0,Tunis,Tūnis,TN,36.81897,10.16579,,Africa/Tunis
105.41.79.32,105.41.79.63,105.41.0.0,Cairo,Cairo,EG,30.06263,31.24967,,Africa/Cairo
101.184.149.108,101.184.149.108,101.184.0.0,Gloucester,New South Wales,AU,-32.0077,151.9633,2422,Australia/Sydney
1.4.232.88,1.4.232.91,1.4.0.0,Na Yung,Udon Thani,TH,17.89747,102.14981,42150,Asia/Bangkok
102.156.56.200,102.156.56.207,102.156.0.0,Menzel Bourguiba,Banzart,TN,37.15368,9.78594,,Africa/Tunis
102.66.8.80,102.66.8.255,102.66.0.0,Port Elizabeth,Eastern Cape,ZA,-33.9667,25.5833,6215,Africa/Johannesburg
105.157.138.24,105.157.138.27,105.157.0.0,Taza,Fès-Meknès,MA,34.21,-4.01,,Africa/Casablanca
101.186.196.192,101.186.196.205,101.186.0.0,Melbourne,Victoria,AU,-37.8208,144.8774,3013,Australia/Melbourne
102.52.63.8,102.52.63.15,102.52.0.0,Ouled Khlifa,Fès-Meknès,MA,33.94265,-5.00153,,Africa/Casablanca
105.168.30.96,105.168.30.127,105.168.0.0,Dundo,Luanda Norte,AO,-7.36643,20.81557,,Africa/Luanda
105.68.201.180,105.68.201.181,105.68.0.0,Demnate,Béni Mellal-Khénifra,MA,31.73443,-7.00505,,Africa/Casablanca
101.67.93.88,101.67.93.95,101.67.0.0,Jinrongjie,Beijing,CN,39.91222,116.35615,,Asia/Shanghai
101.136.215.112,101.136.215.119,101.136.0.0,Taipei,Taiwan,TW,25.04776,121.53185,,Asia/Taipei
102.170.53.176,102.170.53.191,102.170.0.0,As Sanad,Gafsa,TN,34.4628,9.26404,,Africa/Tunis
101.69.63.140,101.69.63.149,101.69.0.0,Hangzhou,Zhejiang,CN,30.29365,120.16142,,Asia/Shanghai
105.238.60.0,105.238.68.95,105.238.0.0,Khartoum,Khartoum,SD,15.55177,32.53241,,Africa/Khartoum
105.32.52.240,105.32.52.243,105.32.0.0,Port Said,Port Said,EG,31.26531,32.3019,,Africa/Cairo
101.161.193.206,101.161.193.207,101.161.0.0,Sydney,New South Wales,AU,-33.85577,151.18473,2041,Australia/Sydney
101.180.73.100,101.180.73.100,101.180.0.0,Yamba,New South Wales,AU,-29.4375,153.35914,2464,Australia/Sydney
1.156.27.24,1.156.27.37,1.156.0.0,Sydney,New South Wales,AU,-33.87259,150.89076,2176,Australia/Sydney
105.16.15.117,105.16.15.130,105.16.0.0,Johannesburg,Gauteng,ZA,-26.20227,28.04363,2041,Africa/Johannesburg
1.183.64.110,1.183.64.110,1.183.0.0,Guangzhou,Guangdong,CN,23.11667,113.25,,Asia/Shanghai
103.178.16.0,103.178.16.63,103.178.0.0,Singapore,,SG,1.28967,103.85007,018989,Asia/Singapore
102.130.23.228,102.130.23.234,102.130.0.0,Harrismith,Orange Free State,ZA,-28.2833,29.1333,9880,Africa/Johannesburg
1.62.103.92,1.62.103.95,1.62.0.0,Tianjin,Tianjin,CN,39.14222,117.17667,,Asia/Shanghai
105.249.83.224,105.249.83.255,105.249.0.0,Vredenburg,Western Cape,ZA,-32.9,17.9833,7380,Africa/Johannesburg
105.230.32.14,105.230.32.15,105.230.0.0,Mwingi,Kitui,KE,-0.93605,38.05955,,Africa/Nairobi
102.109.21.4,102.109.21.7,102.109.0.0,Erriadh,Madanīn,TN,33.82063,10.85394,,Africa/Tunis
105.232.89.240,105.232.89.247,105.232.0.0,Oshakati,Oshana,NA,-17.78833,15.70436,,Africa/Windhoek
102.140.138.180,102.140.139.13,102.140.0.0,Serekunda,Banjul,GM,13.43833,-16.67806,,Africa/Banjul
105.129.217.156,105.129.217.167,105.129.0.0,Oujda-Angad,Oriental,MA,34.68139,-1.90858,,Africa/Casablanca
102.29.205.48,102.29.205.55,102.29.0.0,Banbalah,Al Munastīr,TN,35.7,10.8,,Africa/Tunis
102.189.85.184,102.189.85.191,102.189.0.0,Ţanţā,Gharbia,EG,30.78847,31.00192,,Africa/Cairo
101.249.27.225,101.249.27.225,101.249.0.0,Bayi,Tibet,CN,29.65812,94.35892,,Asia/Shanghai
101.20.28.204,101.20.28.207,101.20.0.0,Tianjin,Tianjin,CN,39.14222,117.17667,,Asia/Shanghai
101.67.84.152,101.67.84.155,101.67.0.0,Hangzhou,Zhejiang,CN,30.29365,120.16142,,Asia/Shanghai
101.248.228.139,101.248.228.139,101.248.0.0,Nanjing,Jiangsu,CN,32.06167,118.77778,,Asia/Shanghai
102.185.159.62,102.185.159.62,102.185.0.0,Alexandria,Alexandria,EG,31.20176,29.91582,,Africa/Cairo
1.183.172.16,1.183.172.17,1.183.0.0,Shanghai,Shanghai,CN,31.22222,121.45806,,Asia/Shanghai
101.191.167.86,101.191.167.91,101.191.0.0,Sydney,New South Wales,AU,-33.69828,150.93173,2155,Australia/Sydney
102.187.7.0,102.187.7.1,102.187.0.0,Cairo,Cairo,EG,30.06263,31.24967,,Africa/Cairo
105.107.159.112,105.107.159.120,105.107.0.0,Constantine,Constantine,DZ,36.365,6.61472,04011,Africa/Algiers
102.186.110.201,102.186.110.227,102.186.0.0,Cairo,Cairo,EG,30.06263,31.24967,,Africa/Cairo
105.197.111.70,105.197.111.113,105.197.0.0,Cairo,Cairo,EG,30.06263,31.24967,,Africa/Cairo
105.182.52.84,105.182.52.87,105.182.0.0,Alexandria,Alexandria,EG,31.20176,29.91582,,Africa/Cairo
1.2.247.4,1.2.247.7,1.2.0.0,Nam Pat,Uttaradit,TH,17.72806,100.68433,53110,Asia/Bangkok
102.26.220.64,102.26.220.255,102.26.0.0,Ksour Essaf,Al Mahdīyah,TN,35.41808,10.99475,,Africa/Tunis
1.77.92.128,1.77.92.135,1.77.0.0,Nagoya,Aichi,JP,35.18147,136.90641,460-0002,Asia/Tokyo
1.34.203.0,1.34.203.255,1.34.0.0,Singapore,,SG,1.28967,103.85007,018989,Asia/Singapore
105.168.185.192,105.168.185.223,105.168.0.0,Cabinda,Cabinda,AO,-5.55,12.2,,Africa/Luanda
104.50.125.0,104.50.125.31,104.50.0.0,Anaheim,California,US,33.83529,-117.9145,92805,America/Los_Angeles
105.105.109.203,105.105.109.203,105.105.0.0,Bir el Ater,Tébessa,DZ,34.74488,8.06024,12001,Africa/Algiers
105.243.117.178,105.243.117.179,105.243.0.0,Rustenburg,North-West,ZA,-25.66756,27.24208,0202,Africa/Johannesburg
104.216.247.0,104.216.247.255,104.216.0.0,Dallas,Texas,US,32.78306,-96.80667,75201,America/Chicago
105.105.91.28,105.105.91.31,105.105.0.0,Bir el Ater,Tébessa,DZ,34.74488,8.06024,12001,Africa/Algiers
1.38.85.76,1.38.85.81,1.38.0.0,Jamnagar,Gujarat,IN,22.47292,70.06673,360510,Asia/Kolkata
102.184.26.175,102.184.26.175,102.184.0.0,Banī Mazār,Minya,EG,28.49456,30.80526,,Africa/Cairo
105.208.62.0,105.208.63.255,105.208.0.0,Johannesburg,Gauteng,ZA,-26.1163,28.06034,2196,Africa/Johannesburg
1.84.66.30,1.84.66.30,1.84.0.0,Chengdu,Sichuan,CN,30.66667,104.06667,,Asia/Shanghai
102.69.164.0,102.69.167.255,102.69.0.0,Dar es Salaam,Dar es Salaam,TZ,-6.82349,39.26951,,Africa/Dar_es_Salaam
104.58.157.177,104.58.158.255,104.58.0.0,Reno,Nevada,US,39.52963,-119.8138,89501,America/Los_Angeles
1.55.88.96,1.55.88.127,1.55.0.0,An Dương,Haiphong,VN,20.86382,106.6133,04406,Asia/Bangkok
105.110.113.56,105.110.113.91,105.110.0.0,Skikda,Skikda,DZ,36.6667,6.8333,21003,Africa/Algiers
104.235.96.13,104.235.96.14,104.235.0.0,Belvidere,Illinois,US,42.26391,-88.84427,61008,America/Chicago
102.107.5.64,102.107.5.95,102.107.0.0,Tataouine,Tataouine,TN,32.92967,10.45177,,Africa/Tunis
101.162.66.137,101.162.66.137,101.162.0.0,Townsville,Queensland,AU,-19.26639,146.80569,4810,Australia/Brisbane
103.145.60.128,103.145.61.127,103.145.0.0,Zhuhai,Guangdong,CN,22.27694,113.56778,,Asia/Shanghai
101.20.130.32,101.20.130.40,101.20.0.0,Langfang,Hebei,CN,39.50972,116.69472,,Asia/Shanghai
105.39.199.160,105.39.199.191,105.39.0.0,Al Badārī,Asyut,EG,26.99306,31.41605,,Africa/Cairo
1.198.170.119,1.198.170.127,1.198.0.0,Hangzhou,Zhejiang,CN,30.29365,120.16142,,Asia/Shanghai
1.191.211.29,1.191.211.29,1.191.0.0,Tianjin,Tianjin,CN,39.14222,117.17667,,Asia/Shanghai
1.196.249.212,1.196.249.215,1.196.0.0,Chengdu,Sichuan,CN,30.66667,104.06667,,Asia/Shanghai
103.246.113.0,103.246.115.255,103.246.0.0,Hong Kong,Central and Western,HK,22.27832,114.17469,,Asia/Hong_Kong
102.157.59.224,102.157.59.225,102.157.0.0,Sbikha,Kairouan,TN,35.93325,10.02081,,Africa/Tunis
101.173.229.20,101.173.229.43,101.173.0.0,Sydney,New South Wales,AU,-33.7309,151.2929,2097,Australia/Sydney
1.42.170.0,1.42.170.7,1.42.0.0,Wollongong,New South Wales,AU,-34.39228,150.88204,2519,Australia/Sydney
1.62.15.77,1.62.15.77,1.62.0.0,Tianjin,Tianjin,CN,39.14222,117.17667,,Asia/Shanghai
102.186.219.208,102.186.219.211,102.186.0.0,Samālūţ,Minya,EG,28.31214,30.71007,,Africa/Cairo
102.185.97.72,102.185.97.79,102.185.0.0,Al Manşūrah,Dakahlia,EG,31.03637,31.38069,,Africa/Cairo
105.156.150.12,105.156.150.15,105.156.0.0,Rabat,Rabat-Salé-Kénitra,MA,34.01325,-6.83255,,Africa/Casablanca
100.6.18.112,100.6.18.255,100.6.0.0,Pittsburgh,Pennsylvania,US,40.3748,-80.0731,15243,America/New_York
102.178.79.208,102.178.79.223,102.178.0.0,Koudougou,Centre-Ouest,BF,12.25263,-2.36272,,Africa/Ouagadougou
1.24.177.76,1.24.177.79,1.24.0.0,Tianjin,Tianjin,CN,39.14222,117.17667,,Asia/Shanghai
101.17.129.4,101.17.129.15,101.17.0.0,Tianjin,Tianjin,CN,39.14222,117.17667,,Asia/Shanghai
102.106.171.88,102.106.171.95,102.106.0.0,Manouba,Manouba,TN,36.81006,10.09557,,Africa/Tunis
103.51.58.160,103.51.58.165,103.51.0.0,Kolkata,West Bengal,IN,22.5333,88.3917,700046,Asia/Kolkata
1.62.54.229,1.62.54.230,1.62.0.0,Harbin,Heilongjiang,CN,45.75,126.65,,Asia/Shanghai
1.15.221.0,1.15.221.39,1.15.0.0,Shenzhen,Guangdong,CN,22.54554,114.0683,,Asia/Shanghai
105.157.84.200,105.157.84.207,105.157.0.0,Marrakesh,Marrakesh-Safi,MA,31.63416,-7.99994,,Africa/Casablanca
101.187.180.6,101.187.180.6,101.187.0.0,Albany,Western Australia,AU,-35.02692,117.88369,6330,Australia/Perth
1.206.127.104,1.206.127.107,1.206.0.0,Chengdu,Sichuan,CN,30.66667,104.06667,,Asia/Shanghai
105.195.148.192,105.195.148.223,105.195.0.0,Sharm el-Sheikh,South Sinai,EG,27.91582,34.32995,,Africa/Cairo
101.58.176.0,101.58.176.1,101.58.0.0,Milan,Lombardy,IT,45.46427,9.18951,20121,Europe/Rome
104.245.31.48,104.245.31.55,104.245.0.0,Los Angeles,California,US,34.05223,-118.24368,90009,America/Los_Angeles
103.115.190.5,103.115.190.7,103.115.0.0,Melbourne,Victoria,AU,-37.814,144.96332,3000,Australia/Melbourne
101.167.32.95,101.167.32.95,101.167.0.0,Mackay,Queensland,AU,-21.15345,149.16554,9943,Australia/Brisbane
101.70.139.181,101.70.139.183,101.70.0.0,Jiaxing,Zhejiang,CN,30.7522,120.75,,Asia/Shanghai
103.214.70.0,103.214.70.31,103.214.0.0,Taipei,Taiwan,TW,25.04776,121.53185,,Asia/Taipei
101.137.235.160,101.137.235.175,101.137.0.0,Hsinchu,Taiwan,TW,24.80361,120.96861,,Asia/Taipei
1.84.100.112,1.84.100.127,1.84.0.0,Nanjing,Jiangsu,CN,32.06167,118.77778,,Asia/Shanghai
104.239.20.33,104.239.20.33,104.239.0.0,Los Angeles,California,US,34.05223,-118.24368,90009,America/Los_Angeles
105.33.187.160,105.33.187.255,105.33.0.0,Abū Tīj,Asyut,EG,27.04514,31.31845,,Africa/Cairo
1.2.196.222,1.2.196.223,1.2.0.0,Lom Sak,Phetchabun,TH,16.77983,101.24225,67110,Asia/Bangkok
101.189.222.152,101.189.222.159,101.189.0.0,Brisbane,Queensland,AU,-27.4005,153.05578,4012,Australia/Brisbane
101.162.84.164,101.162.84.167,101.162.0.0,Cairns,Queensland,AU,-16.92366,145.76613,4870,Australia/Brisbane
102.170.143.64,102.170.143.95,102.170.0.0,Erriadh,Madanīn,TN,33.82063,10.85394,,Africa/Tunis
101.29.103.208,101.29.103.239,101.29.0.0,Hebei,Beijing,CN,39.81521,115.93068,,Asia/Shanghai
101.51.111.13,101.51.111.13,101.51.0.0,Hat Yai,Songkhla,TH,7.00836,100.47668,90110,Asia/Bangkok
105.50.222.224,105.50.222.255,105.50.0.0,Kericho,Kericho,KE,-0.36774,35.28314,,Africa/Nairobi
101.100.154.124,101.100.154.124,101.100.0.0,Milton,Otago,NZ,-46.12083,169.96944,9220,Pacific/Auckland
101.136.251.0,101.136.251.1,101.136.0.0,Taichung,Taiwan,TW,24.1469,120.6839,,Asia/Taipei
103.195.128.0,103.195.131.255,103.195.0.0,The Rocks,New South Wales,AU,-33.85923,151.2081,2000,Australia/Sydney
104.235.42.162,104.235.42.175,104.235.0.0,Princeton,Illinois,US,41.36809,-89.46481,61356,America/Chicago
105.92.170.9,105.92.170.9,105.92.0.0,Cairo,Cairo,EG,30.06263,31.24967,,Africa/Cairo
1.59.178.182,1.59.179.86,1.59.0.0,Beijing,Beijing,CN,39.9075,116.39723,,Asia/Shanghai
105.72.35.132,105.72.35.138,105.72.0.0,Casablanca,Casablanca-Settat,MA,33.58831,-7.61138,,Africa/Casablanca
104.158.76.192,104.158.76.255,104.158.0.0,Moncton,New Brunswick,CA,46.09454,-64.7965,E1C,America/Moncton
103.161.96.0,103.161.96.255,103.161.0.0,Chũ,Bắc Giang,VN,21.37379,106.56649,26316,Asia/Bangkok
102.52.46.120,102.52.46.123,102.52.0.0,Reçani,Drâa-Tafilalet,MA,31.28318,-4.26565,,Africa/Casablanca
104.4.100.237,104.4.100.238,104.4.0.0,Marietta,Ohio,US,39.41535,-81.45484,45750,America/New_York
1.193.162.80,1.193.162.91,1.193.0.0,Hangzhou,Zhejiang,CN,30.29365,120.16142,,Asia/Shanghai
1.10.243.192,1.10.243.239,1.10.0.0,Phra Nakhon Si Ayutthaya,Phra Nakhon Si Ayutthaya,TH,14.35167,100.57739,13000,Asia/Bangkok
101.161.224.152,101.161.224.152,101.161.0.0,Sydney,New South Wales,AU,-33.92096,151.02196,2200,Australia/Sydney
103.219.151.0,103.219.151.255,103.219.0.0,Mumbai,Maharashtra,IN,19.0333,72.85,400019,Asia/Kolkata
105.226.72.152,105.226.72.159,105.226.0.0,Daniëlskuil,Northern Cape,ZA,-28.18873,23.53951,8405,Africa/Johannesburg
101.205.208.241,101.205.208.242,101.205.0.0,Qingdao,Shandong,CN,36.06488,120.38042,,Asia/Shanghai
102.27.251.192,102.27.251.223,102.27.0.0,Tunis,Tūnis,TN,36.81897,10.16579,,Africa/Tunis
102.109.80.64,102.109.80.79,102.109.0.0,Ben Gardane,Madanīn,TN,33.13783,11.21965,,Africa/Tunis
105.47.81.176,105.47.81.191,105.47.0.0,Abū Tīj,Asyut,EG,27.04514,31.31845,,Africa/Cairo
105.157.16.102,105.157.16.107,105.157.0.0,Agadir,Souss-Massa,MA,30.42018,-9.59815,,Africa/Casablanca
104.220.157.110,104.220.157.255,104.220.0.0,Roseville,California,US,38.75212,-121.28801,95678,America/Los_Angeles
102.29.89.224,102.29.89.239,102.29.0.0,La Mohammedia,Tūnis,TN,36.67446,10.15633,,Africa/Tunis
102.0.250.176,102.0.250.211,102.0.0.0,Nairobi,Nairobi Area,KE,-1.28333,36.81667,,Africa/Nairobi
105.172.68.132,105.172.68.135,105.172.0.0,Dundo,Luanda Norte,AO,-7.36643,20.81557,,Africa/Luanda
101.249.109.252,101.249.109.252,101.249.0.0,Nanjing,Jiangsu,CN,32.06167,118.77778,,Asia/Shanghai
105.68.130.48,105.68.130.75,105.68.0.0,Casablanca,Casablanca-Settat,MA,33.58831,-7.61138,,Africa/Casablanca
105.186.40.60,105.186.40.67,105.186.0.0,Cape Town,Western Cape,ZA,-34.05,18.4833,7805,Africa/Johannesburg
103.28.148.228,103.28.148.228,103.28.0.0,Kudus,Central Java,ID,-6.8048,110.8405,,Asia/Jakarta
101.137.205.39,101.137.205.39,101.137.0.0,Taichung,Taiwan,TW,24.1469,120.6839,,Asia/Taipei
1.121.200.128,1.121.200.135,1.121.0.0,Waikerie,South Australia,AU,-34.18178,139.98552,5330,Australia/Adelaide
1.52.120.250,1.52.121.8,1.52.0.0,Hanoi,Hanoi,VN,21.0245,105.84117,10000,Asia/Bangkok
101.66.48.252,101.66.48.253,101.66.0.0,Qingdao,Shandong,CN,36.06488,120.38042,,Asia/Shanghai
103.12.200.87,103.12.200.87,103.12.0.0,Axedale,Victoria,AU,-36.8,144.51667,3551,Australia/Melbourne
101.175.201.86,101.175.201.87,101.175.0.0,Lillian Rock,New South Wales,AU,-28.5349,153.1585,2480,Australia/Sydney
105.247.119.248,105.247.119.248,105.247.0.0,Durban,KwaZulu-Natal,ZA,-29.8579,31.0292,4001,Africa/Johannesburg
104.36.171.128,104.36.171.191,104.36.0.0,Sydney,Nova Scotia,CA,46.1351,-60.1831,B1P,America/Glace_Bay
102.189.107.236,102.189.108.3,102.189.0.0,Ţanţā,Gharbia,EG,30.78847,31.00192,,Africa/Cairo
105.105.18.98,105.105.18.99,105.105.0.0,Biskra,Biskra,DZ,34.8053,5.7341,07006,Africa/Algiers
102.78.158.140,102.78.158.159,102.78.0.0,Marrakesh,Marrakesh-Safi,MA,31.63416,-7.99994,,Africa/Casablanca
102.132.234.64,102.132.234.255,102.132.0.0,Johannesburg,Gauteng,ZA,-26.3333,28.15,1421,Africa/Johannesburg
101.167.0.240,101.167.0.245,101.167.0.0,Townsville,Queensland,AU,-19.26639,146.80569,4810,Australia/Brisbane
102.136.49.128,102.136.49.255,102.136.0.0,San-Pédro,Bas-Sassandra,CI,4.74851,-6.6363,,Africa/Abidjan
101.65.201.8,101.65.201.27,101.65.0.0,Wenzhou,Zhejiang,CN,27.99942,120.66682,,Asia/Shanghai
1.42.110.112,1.42.110.179,1.42.0.0,Sydney,New South Wales,AU,-33.87995,151.1835,2037,Australia/Sydney
101.177.8.248,101.177.8.255,101.177.0.0,Redlynch,Queensland,AU,-16.9254,145.69559,4870,Australia/Brisbane
101.108.169.76,101.108.169.79,101.108.0.0,Prachuap Khiri Khan,Prachuap Khiri Khan,TH,11.82098,99.7841,77000,Asia/Bangkok
105.206.255.160,105.206.255.199,105.206.0.0,Cairo,Cairo,EG,30.06263,31.24967,,Africa/Cairo
105.105.206.68,105.105.206.71,105.105.0.0,Tébessa,Tébessa,DZ,35.6485,8.2618,12008,Africa/Algiers
105.46.42.192,105.46.42.255,105.46.0.0,Fāraskūr,Damietta,EG,31.32977,31.71507,,Africa/Cairo
101.249.73.7,101.249.73.7,101.249.0.0,Bayi,Tibet,CN,29.65812,94.35892,,Asia/Shanghai
104.28.69.15,104.28.69.24,104.28.0.0,San Jose,California,US,37.33939,-121.89496,95103,America/Los_Angeles
101.58.129.40,101.58.129.41,101.58.0.0,Genoa,Liguria,IT,44.40478,8.94439,16100,Europe/Rome
101.137.0.228,101.137.0.229,101.137.0.0,Taipei,Taiwan,TW,25.04776,121.53185,,Asia/Taipei
1.69.63.144,1.69.63.147,1.69.0.0,Shanxi,Hunan,CN,28.03167,110.95444,,Asia/Shanghai
105.251.162.128,105.251.162.135,105.251.0.0,Port Elizabeth,Eastern Cape,ZA,-33.9,25.6,6200,Africa/Johannesburg
105.196.155.76,105.196.155.77,105.196.0.0,Al Qūşīyah,Asyut,EG,27.44023,30.81712,,Africa/Cairo
103.234.215.0,103.234.215.255,103.234.0.0,Mumbai,Maharashtra,IN,19.07283,72.88261,400070,Asia/Kolkata
1.49.192.56,1.49.192.56,1.49.0.0,Chengdu,Sichuan,CN,30.66667,104.06667,,Asia/Shanghai
101.71.108.8,101.71.108.15,101.71.0.0,Panshan,Liaoning,CN,41.18806,122.04944,,Asia/Shanghai
104.28.133.252,104.28.133.255,104.28.0.0,Louisville,Kentucky,US,38.25424,-85.75941,40259,America/Kentucky/Louisville
101.108.113.128,101.108.123.255,101.108.0.0,Bangkok,Bangkok,TH,13.75398,100.50144,10200,Asia/Bangkok
101.173.67.240,101.173.67.255,101.173.0.0,Melbourne,Victoria,AU,-37.814,144.96332,3000,Australia/Melbourne
101.20.9.10,101.20.9.47,101.20.0.0,Shenyang,Liaoning,CN,41.79222,123.43278,,Asia/Shanghai
1.72.196.128,1.72.196.151,1.72.0.0,Nagoya,Aichi,JP,35.18147,136.90641,460-0002,Asia/Tokyo
103.14.216.88,103.14.216.127,103.14.0.0,Auckland,Auckland,NZ,-36.84853,174.76349,1010,Pacific/Auckland
1.175.215.191,1.175.215.192,1.175.0.0,Kaohsiung,Takao,TW,22.61626,120.31333,,Asia/Taipei
105.107.143.192,105.107.143.207,105.107.0.0,Constantine,Constantine,DZ,36.365,6.61472,04011,Africa/Algiers
1.32.38.76,1.32.38.76,1.32.0.0,Tawau,Sabah,MY,4.24482,117.89115,91007,Asia/Kuching
1.84.61.113,1.84.61.113,1.84.0.0,Nanjing,Jiangsu,CN,32.06167,118.77778,,Asia/Shanghai
1.183.236.45,1.183.236.45,1.183.0.0,Guangzhou,Guangdong,CN,23.11667,113.25,,Asia/Shanghai
1.123.223.192,1.123.223.255,1.123.0.0,Melbourne,Victoria,AU,-37.81105,145.0776,3103,Australia/Melbourne
101.114.77.224,101.114.77.255,101.114.0.0,Sydney,New South Wales,AU,-33.8984,150.9965,2197,Australia/Sydney
1.121.212.112,1.121.212.113,1.121.0.0,Renmark,South Australia,AU,-34.17702,140.74697,5341,Australia/Adelaide
1.62.78.212,1.62.78.213,1.62.0.0,Tianjin,Tianjin,CN,39.14222,117.17667,,Asia/Shanghai
105.130.192.128,105.130.193.255,105.130.0.0,Rabat,Rabat-Salé-Kénitra,MA,34.01325,-6.83255,,Africa/Casablanca
104.207.128.0,104.207.128.15,104.207.0.0,New York City,New York,US,40.71427,-74.00597,10004,America/New_York
1.4.152.229,1.4.152.229,1.4.0.0,Pla Pak,Nakhon Phanom,TH,17.18064,104.52606,48160,Asia/Bangkok
1.205.131.62,1.205.131.62,1.205.0.0,Chengdu,Sichuan,CN,30.66667,104.06667,,Asia/Shanghai
1.20.92.208,1.20.92.223,1.20.0.0,Udon Thani,Udon Thani,TH,17.41567,102.78589,41000,Asia/Bangkok
105.88.85.176,105.88.85.207,105.88.0.0,Cairo,Cairo,EG,30.06263,31.24967,,Africa/Cairo
103.162.98.128,103.162.99.255,103.162.0.0,Hanoi,Hanoi,VN,21.0245,105.84117,10000,Asia/Bangkok
103.19.201.164,103.19.201.167,103.19.0.0,Jandiāla,Punjab,IN,31.11799,75.78839,144418,Asia/Kolkata
1.183.183.5,1.183.183.5,1.183.0.0,Hangzhou,Zhejiang,CN,30.29365,120.16142,,Asia/Shanghai
1.50.238.14,1.50.238.14,1.50.0.0,Chengdu,Sichuan,CN,30.66667,104.06667,,Asia/Shanghai
101.67.225.28,101.67.225.29,101.67.0.0,Hangzhou,Zhejiang,CN,30.29365,120.16142,,Asia/Shanghai
102.189.110.144,102.189.110.163,102.189.0.0,Alexandria,Alexandria,EG,31.20176,29.91582,,Africa/Cairo
104.160.116.68,104.160.116.119,104.160.0.0,Flower Mound,Texas,US,33.01457,-97.09696,75022,America/Chicago
1.52.56.8,1.52.56.15,1.52.0.0,Biên Hòa,Đồng Nai,VN,10.94469,106.82432,76199,Asia/Ho_Chi_Minh
105.106.236.0,105.106.236.8,105.106.0.0,Chelghoum el Aïd,Mila,DZ,36.16286,6.16651,43013,Africa/Algiers
101.183.19.35,101.183.19.35,101.183.0.0,Sydney,New South Wales,AU,-33.86785,151.20732,1001,Australia/Sydney
105.69.173.26,105.69.173.55,105.69.0.0,Casablanca,Casablanca-Settat,MA,33.58831,-7.61138,,Africa/Casablanca
1.112.57.56,1.112.57.56,1.112.0.0,Osaka,Ōsaka,JP,34.69374,135.50218,543-0062,Asia/Tokyo
101.137.112.64,101.137.112.87,101.137.0.0,Nantou,Taiwan,TW,23.91566,120.66387,,Asia/Taipei
105.243.11.21,105.243.11.21,105.243.0.0,Cape Town,Western Cape,ZA,-33.92584,18.42322,7945,Africa/Johannesburg
1.0.248.208,1.0.248.215,1.0.0.0,Betong,Yala,TH,5.77434,101.07231,95110,Asia/Bangkok
1.197.241.239,1.197.241.239,1.197.0.0,Nanjing,Jiangsu,CN,32.06167,118.77778,,Asia/Shanghai
102.190.27.140,102.190.27.167,102.190.0.0,Cairo,Cairo,EG,30.06263,31.24967,,Africa/Cairo
1.54.154.156,1.54.154.159,1.54.0.0,Qui Nhon,Bình Định,VN,13.77648,109.22367,55117,Asia/Ho_Chi_Minh
102.27.185.0,102.27.185.63,102.27.0.0,As Sanad,Gafsa,TN,34.4628,9.26404,,Africa/Tunis
102.189.77.13,102.189.77.55,102.189.0.0,Ţanţā,Gharbia,EG,30.78847,31.00192,,Africa/Cairo
1.50.72.72,1.50.72.74,1.50.0.0,Hangzhou,Zhejiang,CN,30.29365,120.16142,,Asia/Shanghai
1.194.82.0,1.194.82.1,1.194.0.0,Nanjing,Jiangsu,CN,32.06167,118.77778,,Asia/Shanghai
105.101.156.0,105.101.156.255,105.101.0.0,Algiers,Algiers,DZ,36.73225,3.08746,16006,Africa/Algiers
101.128.215.248,101.128.215.255,101.128.0.0,Kanazawa,Ishikawa,JP,36.6299,136.6426,920-0219,Asia/Tokyo
101.173.18.208,101.173.18.215,101.173.0.0,Port Pirie,South Australia,AU,-33.19176,138.01746,5540,Australia/Adelaide
102.166.227.160,102.166.227.175,102.166.0.0,Kikuyu,Kiambu,KE,-1.24627,36.66291,,Africa/Nairobi
1.207.84.127,1.207.84.131,1.207.0.0,Hangzhou,Zhejiang,CN,30.29365,120.16142,,Asia/Shanghai
104.15.9.28,104.15.9.31,104.15.0.0,Dodge City,Kansas,US,37.7528,-100.01708,67801,America/Chicago
101.136.2.188,101.136.2.191,101.136.0.0,Chang-hua,Taiwan,TW,24.07327,120.56276,,Asia/Taipei
105.105.105.16,105.105.105.19,105.105.0.0,Batna,Batna,DZ,35.4913,6.0986,05093,Africa/Algiers
101.205.252.240,101.205.252.247,101.205.0.0,Tianjin,Tianjin,CN,39.14222,117.17667,,Asia/Shanghai
1.54.200.250,1.54.201.2,1.54.0.0,Hanoi,Hanoi,VN,21.0245,105.84117,10000,Asia/Bangkok
1.70.160.254,1.70.161.35,1.70.0.0,Hangzhou,Zhejiang,CN,30.29365,120.16142,,Asia/Shanghai
1.82.40.234,1.82.40.235,1.82.0.0,Chengdu,Sichuan,CN,30.66667,104.06667,,Asia/Shanghai
1.187.118.144,1.187.118.144,1.187.0.0,Pune,Maharashtra,IN,18.51957,73.85535,411001,Asia/Kolkata
105.109.112.96,105.109.112.255,105.109.0.0,Sétif,Sétif,DZ,36.104,5.4368,19036,Africa/Algiers
1.50.250.139,1.50.250.139,1.50.0.0,Hangzhou,Zhejiang,CN,30.29365,120.16142,,Asia/Shanghai
1.82.206.91,1.82.206.91,1.82.0.0,Chengdu,Sichuan,CN,30.66667,104.06667,,Asia/Shanghai
101.70.0.172,101.70.0.175,101.70.0.0,Tianjin,Tianjin,CN,39.14222,117.17667,,Asia/Shanghai
102.141.73.92,102.141.73.103,102.141.0.0,Phalaborwa,Limpopo,ZA,-23.95,31.1167,1394,Africa/Johannesburg
105.207.110.16,105.207.110.31,105.207.0.0,Girga,Sohag,EG,26.33721,31.89295,,Africa/Cairo
1.195.76.210,1.195.76.227,1.195.0.0,Hangzhou,Zhejiang,CN,30.29365,120.16142,,Asia/Shanghai
105.129.202.144,105.129.202.159,105.129.0.0,Oujda-Angad,Oriental,MA,34.68139,-1.90858,,Africa/Casablanca
101.50.146.224,101.50.146.231,101.50.0.0,Kakogawa,Hyōgo,JP,34.75064,134.86954,675-0301,Asia/Tokyo
105.36.144.176,105.36.144.191,105.36.0.0,Cairo,Cairo,EG,30.06263,31.24967,,Africa/Cairo
105.88.73.64,105.88.73.95,105.88.0.0,Aswan,Aswan,EG,24.09082,32.89942,,Africa/Cairo
1.49.46.88,1.49.46.89,1.49.0.0,Nanjing,Jiangsu,CN,32.06167,118.77778,,Asia/Shanghai
105.182.191.96,105.182.191.127,105.182.0.0,Disūq,Kafr el-Sheikh,EG,31.13259,30.64784,,Africa/Cairo
104.187.44.180,104.187.44.181,104.187.0.0,Peoria,Illinois,US,40.7132,-89.577,61603,America/Chicago
101.67.182.44,101.67.182.47,101.67.0.0,Hangzhou,Zhejiang,CN,30.29365,120.16142,,Asia/Shanghai
105.88.202.152,105.88.202.255,105.88.0.0,Cairo,Cairo,EG,30.06263,31.24967,,Africa/Cairo
105.51.64.128,105.51.64.191,105.51.0.0,Ahero,Kisumu,KE,-0.17359,34.9189,,Africa/Nairobi
101.184.186.154,101.184.186.155,101.184.0.0,Gunnedah,New South Wales,AU,-30.98065,150.25838,2380,Australia/Sydney
105.231.146.160,105.231.146.167,105.231.0.0,Chuka,Tharaka - Nithi,KE,-0.33316,37.64587,,Africa/Nairobi
105.110.184.164,105.110.184.167,105.110.0.0,District of Taher,Jijel,DZ,36.772,5.8982,18002,Africa/Algiers
102.190.147.168,102.190.147.169,102.190.0.0,Mallawī,Minya,EG,27.73264,30.84129,,Africa/Cairo
1.200.248.72,1.200.249.19,1.200.0.0,Taipei,Taiwan,TW,25.04776,121.53185,,Asia/Taipei
1.0.117.112,1.0.117.127,1.0.0.0,Ube,Yamaguchi,JP,33.979,131.2978,755-0152,Asia/Tokyo
1.207.250.68,1.207.250.79,1.207.0.0,Hangzhou,Zhejiang,CN,30.29365,120.16142,,Asia/Shanghai
1.28.49.235,1.28.49.236,1.28.0.0,Tianjin,Tianjin,CN,39.14222,117.17667,,Asia/Shanghai
102.10.120.16,102.10.120.23,102.10.0.0,Giza,Giza,EG,30.00944,31.20861,,Africa/Cairo
1.183.66.237,1.183.66.239,1.183.0.0,Guangzhou,Guangdong,CN,23.11667,113.25,,Asia/Shanghai
102.167.115.160,102.167.115.175,102.167.0.0,Kiambu,Kiambu,KE,-1.17139,36.83556,,Africa/Nairobi
101.180.115.200,101.180.115.223,101.180.0.0,Sydney,New South Wales,AU,-33.7333,151,1765,Australia/Sydney
1.161.180.192,1.161.181.127,1.161.0.0,Zhubei,Taiwan,TW,24.83833,121.00778,,Asia/Taipei
1.195.236.144,1.195.236.159,1.195.0.0,Henan,Heilongjiang,CN,47.9658,126.01958,,Asia/Shanghai
103.176.10.64,103.176.10.79,103.176.0.0,Nizāmābād,Telangana,IN,18.6828,78.1153,503002,Asia/Kolkata
1.62.103.96,1.62.103.103,1.62.0.0,Qingdao,Shandong,CN,36.06488,120.38042,,Asia/Shanghai
1.69.26.0,1.69.26.31,1.69.0.0,Chengdu,Sichuan,CN,30.66667,104.06667,,Asia/Shanghai
1.10.177.48,1.10.177.55,1.10.0.0,U Thong,Suphanburi,TH,14.37514,99.89225,10230,Asia/Bangkok
105.158.75.94,105.158.75.107,105.158.0.0,Meknès,Fès-Meknès,MA,33.89352,-5.54727,,Africa/Casablanca
1.10.226.220,1.10.226.221,1.10.0.0,Sangkhla Buri,Kanchanaburi,TH,15.15553,98.45361,71240,Asia/Bangkok
101.56.74.80,101.56.74.87,101.56.0.0,Lisciano di Colloto,The Marches,IT,42.80259,13.49374,63100,Europe/Rome
1.156.175.0,1.156.175.39,1.156.0.0,Brisbane,Queensland,AU,-27.30215,152.95323,4500,Australia/Brisbane
105.211.69.0,105.211.72.255,105.211.0.0,London,England,GB,51.50853,-0.12574,EC1A,Europe/London
101.249.151.146,101.249.151.147,101.249.0.0,Nanjing,Jiangsu,CN,32.06167,118.77778,,Asia/Shanghai
103.246.181.98,103.246.181.99,103.246.0.0,Milbrodale,New South Wales,AU,-32.69555,151.00957,2330,Australia/Sydney
101.74.133.112,101.74.133.115,101.74.0.0,Qingdao,Shandong,CN,36.06488,120.38042,,Asia/Shanghai
103.27.230.236,103.27.230.237,103.27.0.0,Reno,Nevada,US,39.52963,-119.8138,89501,America/Los_Angeles
105.154.222.64,105.154.222.65,105.154.0.0,Smimou,Marrakesh-Safi,MA,31.21014,-9.70863,,Africa/Casablanca
103.148.102.0,103.148.103.255,103.148.0.0,Tungi,Dhaka,BD,23.89154,90.40232,1230,Asia/Dhaka
101.174.21.171,101.174.21.185,101.174.0.0,Adelaide,South Australia,AU,-34.92866,138.59863,5000,Australia/Adelaide
105.242.240.245,105.242.240.245,105.242.0.0,Cape Town,Western Cape,ZA,-33.92584,18.42322,7945,Africa/Johannesburg
102.52.148.56,102.52.148.67,102.52.0.0,Agadir,Souss-Massa,MA,30.42018,-9.59815,,Africa/Casablanca
1.74.242.0,1.74.242.31,1.74.0.0,Kasuga,Fukuoka,JP,33.52594,130.4611,816-0814,Asia/Tokyo
105.196.73.50,105.196.73.51,105.196.0.0,Al Qūşīyah,Asyut,EG,27.44023,30.81712,,Africa/Cairo
1.187.1.210,1.187.1.212,1.187.0.0,Ozar,Maharashtra,IN,20.09473,73.92816,423502,Asia/Kolkata
101.179.168.236,101.179.168.237,101.179.0.0,Eton,Queensland,AU,-21.26471,148.97237,4741,Australia/Brisbane
105.250.226.32,105.250.226.63,105.250.0.0,Mossel Bay,Western Cape,ZA,-34.1167,22.1167,6520,Africa/Johannesburg
104.158.24.32,104.158.24.55,104.158.0.0,Toronto,Ontario,CA,43.6513,-79.3756,M5C,America/Toronto
104.28.99.72,104.28.99.72,104.28.0.0,Saipan,Saipan,MP,15.21233,145.7545,96950,Pacific/Saipan
101.109.63.160,101.109.63.194,101.109.0.0,Chon Buri,Chon Buri,TH,13.3622,100.98345,20160,Asia/Bangkok
105.201.76.208,105.201.76.223,105.201.0.0,Ain Sukhna,Suez,EG,29.60018,32.31671,,Africa/Cairo
103.48.182.240,103.48.182.243,103.48.0.0,Tiruvannāmalai,Tamil Nadu,IN,12.22662,79.07461,606611,Asia/Kolkata
101.16.81.122,101.16.81.159,101.16.0.0,Tianjin,Tianjin,CN,39.14222,117.17667,,Asia/Shanghai
101.64.102.161,101.64.102.187,101.64.0.0,Ningbo,Zhejiang,CN,29.87819,121.54945,,Asia/Shanghai
104.193.238.112,104.193.238.255,104.193.0.0,Moses Lake,Washington,US,47.13014,-119.27808,98837,America/Los_Angeles
1.62.40.232,1.62.40.232,1.62.0.0,Harbin,Heilongjiang,CN,45.75,126.65,,Asia/Shanghai
1.33.63.49,1.33.63.49,1.33.0.0,Morioka,Iwate,JP,39.7,141.15,020-0015,Asia/Tokyo
105.226.94.75,105.226.94.75,105.226.0.0,Springbok,Northern Cape,ZA,-29.66434,17.8865,8240,Africa/Johannesburg
103.124.136.129,103.124.136.135,103.124.0.0,Kudus,Central Java,ID,-6.8048,110.8405,,Asia/Jakarta
105.92.120.218,105.92.120.219,105.92.0.0,Sohag,Sohag,EG,26.55695,31.69478,,Africa/Cairo
102.52.127.64,102.52.127.127,102.52.0.0,Hassilabied,Drâa-Tafilalet,MA,31.13448,-4.02623,,Africa/Casablanca
104.235.159.167,104.235.159.171,104.235.0.0,West Frankfort,Illinois,US,37.89783,-88.93146,62896,America/Chicago
105.196.75.20,105.196.75.21,105.196.0.0,Ismailia,Ismailia,EG,30.60427,32.27225,,Africa/Cairo
101.30.200.26,101.30.200.26,101.30.0.0,Qingdao,Shandong,CN,36.06488,120.38042,,Asia/Shanghai
1.197.89.80,1.197.89.85,1.197.0.0,Nanjing,Jiangsu,CN,32.06167,118.77778,,Asia/Shanghai
101.191.197.176,101.191.197.191,101.191.0.0,Jaspers Brush,New South Wales,AU,-34.81667,150.66667,2535,Australia/Sydney
1.159.203.132,1.159.203.147,1.159.0.0,Perth,Western Australia,AU,-31.94325,115.86335,6003,Australia/Perth
102.158.209.76,102.158.209.79,102.158.0.0,Sousse,Sūsah,TN,35.82539,10.63699,,Africa/Tunis
1.197.236.11,1.197.236.13,1.197.0.0,Hangzhou,Zhejiang,CN,30.29365,120.16142,,Asia/Shanghai
1.194.86.193,1.194.86.194,1.194.0.0,Nanjing,Jiangsu,CN,32.06167,118.77778,,Asia/Shanghai
101.27.232.114,101.27.232.115,101.27.0.0,Qingdao,Shandong,CN,36.06488,120.38042,,Asia/Shanghai
1.9.206.116,1.9.206.118,1.9.0.0,Kota Bharu,Kelantan,MY,6.12361,102.24333,15000,Asia/Kuala_Lumpur
101.187.134.32,101.187.134.33,101.187.0.0,Hobart,Tasmania,AU,-42.87936,147.32941,7000,Australia/Hobart
101.116.92.24,101.116.92.27,101.116.0.0,Gold Coast,Queensland,AU,-27.96369,153.36697,4214,Australia/Brisbane
102.143.224.224,102.143.224.231,102.143.0.0,Port Sudan,Red Sea,SD,19.61745,37.21644,,Africa/Khartoum
105.248.112.0,105.248.112.255,105.248.0.0,Kruisfontein,Eastern Cape,ZA,-33.9028,24.8675,6330,Africa/Johannesburg
102.106.22.56,102.106.22.79,102.106.0.0,As Sanad,Gafsa,TN,34.4628,9.26404,,Africa/Tunis
101.175.17.6,101.175.17.7,101.175.0.0,Condobolin,New South Wales,AU,-33.08877,147.15139,2877,Australia/Sydney
102.45.242.216,102.45.242.219,102.45.0.0,Madīnat Sittah Uktūbar,Giza,EG,29.81667,31.05,,Africa/Cairo
1.62.70.40,1.62.70.47,1.62.0.0,Harbin,Heilongjiang,CN,45.75,126.65,,Asia/Shanghai
103.140.147.105,103.140.147.105,103.140.0.0,Olecko,Warmia-Masuria,PL,54.03374,22.50704,19-400,Europe/Warsaw
102.190.98.60,102.190.98.247,102.190.0.0,Cairo,Cairo,EG,30.06263,31.24967,,Africa/Cairo
103.17.223.51,103.17.223.64,103.17.0.0,Sydney,New South Wales,AU,-33.86785,151.20732,1001,Australia/Sydney
101.249.86.52,101.249.86.52,101.249.0.0,Chengdu,Sichuan,CN,30.66667,104.06667,,Asia/Shanghai
101.174.131.174,101.174.131.203,101.174.0.0,Adelaide,South Australia,AU,-34.9105,138.5346,5025,Australia/Adelaide
103.9.115.1,103.9.115.1,103.9.0.0,Singapore,,SG,1.28967,103.85007,018989,Asia/Singapore
101.167.38.0,101.167.38.3,101.167.0.0,Mackay,Queensland,AU,-21.15345,149.16554,9943,Australia/Brisbane
103.242.191.0,103.242.191.7,103.242.0.0,Kolkata,West Bengal,IN,22.56263,88.36304,700006,Asia/Kolkata
102.51.62.108,102.51.62.135,102.51.0.0,Marrakesh,Marrakesh-Safi,MA,31.63416,-7.99994,,Africa/Casablanca
102.143.193.171,102.143.193.255,102.143.0.0,Canberra,Australian Capital Territory,AU,-35.28346,149.12807,2600,Australia/Sydney
1.199.137.198,1.199.137.199,1.199.0.0,Chengdu,Sichuan,CN,30.66667,104.06667,,Asia/Shanghai
105.156.116.138,105.156.116.138,105.156.0.0,Safi,Marrakesh-Safi,MA,32.29939,-9.23718,,Africa/Casablanca
104.44.42.94,104.44.42.94,104.44.0.0,Düsseldorf,North Rhine-Westphalia,DE,51.22172,6.77616,40210,Europe/Berlin
102.109.222.158,102.109.222.163,102.109.0.0,Sousse,Sūsah,TN,35.82539,10.63699,,Africa/Tunis
1.187.117.216,1.187.117.221,1.187.0.0,Pune,Maharashtra,IN,18.51957,73.85535,411001,Asia/Kolkata
104.28.57.167,104.28.57.168,104.28.0.0,Danbury,Connecticut,US,41.39482,-73.45401,06810,America/New_York
105.54.254.160,105.54.254.191,105.54.0.0,Lugulu,Busia,KE,0.39337,34.30399,,Africa/Nairobi
102.188.34.236,102.188.34.255,102.188.0.0,Ţanţā,Gharbia,EG,30.78847,31.00192,,Africa/Cairo
104.2.220.0,104.2.220.15,104.2.0.0,Lake City,Florida,US,30.1601,-82.6396,32025,America/New_York
1.53.152.58,1.53.152.59,1.53.0.0,Cam Ranh,Khánh Hòa,VN,11.92144,109.15913,57850,Asia/Ho_Chi_Minh
1.69.232.26,1.69.232.63,1.69.0.0,Shanxi,Hunan,CN,28.03167,110.95444,,Asia/Shanghai
101.187.133.208,101.187.133.217,101.187.0.0,Gold Coast,Queensland,AU,-28.00029,153.43088,4217,Australia/Brisbane
103.142.175.0,103.142.175.15,103.142.0.0,Jaipur,Rajasthan,IN,26.91962,75.78781,302001,Asia/Kolkata
105.164.163.66,105.164.163.66,105.164.0.0,Hola,Tana River,KE,-1.48256,40.03341,,Africa/Nairobi
101.186.173.192,101.186.173.229,101.186.0.0,Melbourne,Victoria,AU,-37.8368,145.273,3153,Australia/Melbourne
102.186.67.200,102.186.67.201,102.186.0.0,Damanhūr,Beheira,EG,31.03408,30.46823,,Africa/Cairo
102.122.3.108,102.122.3.111,102.122.0.0,Berber,River Nile,SD,18.02158,33.98299,,Africa/Khartoum
104.8.115.204,104.8.115.207,104.8.0.0,Longview,Texas,US,32.5547,-94.7767,75605,America/Chicago
101.30.238.136,101.30.238.143,101.30.0.0,Qingdao,Shandong,CN,36.06488,120.38042,,Asia/Shanghai
102.6.106.232,102.6.106.239,102.6.0.0,Nakuru,Nakuru,KE,-0.30719,36.07225,,Africa/Nairobi
102.146.112.136,102.146.112.139,102.146.0.0,Livingstone,Southern,ZM,-17.84194,25.85425,,Africa/Lusaka
101.184.60.132,101.184.60.133,101.184.0.0,Tweed Heads,New South Wales,AU,-28.17671,153.5452,2485,Australia/Sydney
103.144.80.67,103.144.80.70,103.144.0.0,Pekanbaru,Riau,ID,0.51667,101.44167,,Asia/Jakarta
101.136.102.128,101.136.102.135,101.136.0.0,Taitung,Taiwan,TW,22.75991,121.14457,,Asia/Taipei
105.197.91.79,105.197.91.95,105.197.0.0,Cairo,Cairo,EG,30.06263,31.24967,,Africa/Cairo
103.90.230.108,103.90.230.117,103.90.0.0,Ðà Lạt,Lâm Đồng,VN,11.94646,108.44193,66150,Asia/Ho_Chi_Minh
101.191.13.88,101.191.13.95,101.191.0.0,Wangaratta,Victoria,AU,-36.35846,146.32056,3676,Australia/Melbourne
102.2.249.90,102.2.249.133,102.2.0.0,Nairobi,Nairobi Area,KE,-1.28333,36.81667,,Africa/Nairobi
105.204.86.64,105.204.86.95,105.204.0.0,Cairo,Cairo,EG,30.06263,31.24967,,Africa/Cairo
104.44.20.180,104.44.20.180,104.44.0.0,Cardiff,Wales,GB,51.48,-3.18,CF10,Europe/London
105.157.141.149,105.157.141.151,105.157.0.0,Al Hoceïma,Tanger-Tetouan-Al Hoceima,MA,35.25165,-3.93723,,Africa/Casablanca
100.19.15.0,100.19.15.255,100.19.0.0,Philadelphia,Pennsylvania,US,39.9845,-75.2282,19131,America/New_York
103.211.17.0,103.211.17.255,103.211.0.0,Bengaluru,Karnataka,IN,12.97194,77.59369,560002,Asia/Kolkata
101.65.112.34,101.65.112.35,101.65.0.0,Tianjin,Tianjin,CN,39.14222,117.17667,,Asia/Shanghai
1.158.188.230,1.158.188.231,1.158.0.0,Wallaroo,South Australia,AU,-33.93881,137.63365,5556,Australia/Adelaide
101.191.237.88,101.191.237.129,101.191.0.0,Sydney,New South Wales,AU,-33.8678,151.2073,1041,Australia/Sydney
1.214.249.0,1.214.249.30,1.214.0.0,Seoul,Seoul,KR,37.566,126.9784,03141,Asia/Seoul
101.176.128.236,101.176.128.255,101.176.0.0,Sydney,New South Wales,AU,-33.9555,151.01603,2212,Australia/Sydney
105.191.15.240,105.191.15.243,105.191.0.0,Kenitra,Rabat-Salé-Kénitra,MA,34.26101,-6.5802,,Africa/Casablanca
1.0.236.160,1.0.236.175,1.0.0.0,Dong Luang,Mukdahan,TH,16.81589,104.538,49150,Asia/Bangkok
1.20.104.24,1.20.104.31,1.20.0.0,Pai,Chiang Mai,TH,19.36168,98.43973,58130,Asia/Bangkok
103.149.30.0,103.149.30.255,103.149.0.0,Tokyo,Tokyo,JP,35.6895,139.69171,101-8656,Asia/Tokyo
105.166.4.190,105.166.4.207,105.166.0.0,Nairobi,Nairobi Area,KE,-1.28333,36.81667,,Africa/Nairobi
102.32.10.80,102.32.10.83,102.32.0.0,Soweto,Gauteng,ZA,-26.3567,27.8333,1820,Africa/Johannesburg
100.41.223.54,100.41.223.69,100.41.0.0,Ashburn,Virginia,US,39.04372,-77.48749,20147,America/New_York
105.40.115.232,105.40.115.232,105.40.0.0,Al Qūşīyah,Asyut,EG,27.44023,30.81712,,Africa/Cairo
101.207.236.68,101.207.236.71,101.207.0.0,Tianjin,Tianjin,CN,39.14222,117.17667,,Asia/Shanghai
104.28.37.117,104.28.37.120,104.28.0.0,Ahmedabad,Gujarat,IN,23.02579,72.58727,380001,Asia/Kolkata
103.244.241.83,103.244.241.83,103.244.0.0,Hazāribāgh,Jharkhand,IN,23.99241,85.36162,825302,Asia/Kolkata
102.78.187.92,102.78.187.95,102.78.0.0,Inezgane,Souss-Massa,MA,30.35535,-9.53639,,Africa/Casablanca
105.199.34.85,105.199.34.87,105.199.0.0,Asyūţ,Asyut,EG,27.18096,31.18368,,Africa/Cairo
105.166.52.208,105.166.53.63,105.166.0.0,Nairobi,Nairobi Area,KE,-1.28333,36.81667,,Africa/Nairobi
102.185.94.104,102.185.94.121,102.185.0.0,Cairo,Cairo,EG,30.06263,31.24967,,Africa/Cairo
102.136.144.64,102.136.144.255,102.136.0.0,Bingerville,Abidjan,CI,5.35581,-3.88537,,Africa/Abidjan
105.112.143.36,105.112.143.39,105.112.0.0,Bonny,Rivers,NG,4.4516,7.17074,,Africa/Lagos
103.41.31.48,103.41.31.49,103.41.0.0,Dārjiling,West Bengal,IN,27.03333,88.26667,734101,Asia/Kolkata
1.199.240.114,1.199.240.119,1.199.0.0,Hangzhou,Zhejiang,CN,30.29365,120.16142,,Asia/Shanghai
104.59.61.16,104.59.61.19,104.59.0.0,Lyons,Kansas,US,38.34501,-98.20173,67554,America/Chicago
101.25.130.204,101.25.130.207,101.25.0.0,Qingdao,Shandong,CN,36.06488,120.38042,,Asia/Shanghai
105.59.73.80,105.59.73.95,105.59.0.0,Eldoret,Uasin Gishu,KE,0.52036,35.26993,,Africa/Nairobi
104.28.90.64,104.28.90.65,104.28.0.0,San Francisco,California,US,37.7621,-122.3971,94107,America/Los_Angeles
101.66.103.94,101.66.103.118,101.66.0.0,Tianjin,Tianjin,CN,39.14222,117.17667,,Asia/Shanghai
101.182.148.0,101.182.148.7,101.182.0.0,Gold Coast,Queensland,AU,-28.00029,153.43088,4217,Australia/Brisbane
1.1.139.125,1.1.139.127,1.1.0.0,Nikhom Kham Soi,Mukdahan,TH,16.37167,104.55147,49130,Asia/Bangkok
101.20.211.172,101.20.211.175,101.20.0.0,Shenyang,Liaoning,CN,41.79222,123.43278,,Asia/Shanghai
105.145.164.128,105.145.164.191,105.145.0.0,Tangier,Tanger-Tetouan-Al Hoceima,MA,35.76727,-5.79975,,Africa/Casablanca
102.184.236.242,102.184.236.251,102.184.0.0,Cairo,Cairo,EG,30.06263,31.24967,,Africa/Cairo
101.178.6.3,101.178.6.19,101.178.0.0,Hobart,Tasmania,AU,-42.87936,147.32941,7000,Australia/Hobart
101.75.39.32,101.75.39.51,101.75.0.0,Tianjin,Tianjin,CN,39.14222,117.17667,,Asia/Shanghai
102.5.2.8,102.5.2.63,102.5.0.0,Nairobi,Nairobi Area,KE,-1.28333,36.81667,,Africa/Nairobi
1.33.63.224,1.33.63.255,1.33.0.0,Sendai,Miyagi,JP,38.2213,140.8109,982-0221,Asia/Tokyo
101.98.118.64,101.98.118.64,101.98.0.0,Hamilton,Waikato,NZ,-37.78333,175.28333,3214,Pacific/Auckland
101.178.163.224,101.178.168.255,101.178.0.0,Melbourne,Victoria,AU,-37.814,144.96332,3000,Australia/Melbourne
1.190.155.96,1.190.155.111,1.190.0.0,Harbin,Heilongjiang,CN,45.75,126.65,,Asia/Shanghai
1.156.112.0,1.156.113.255,1.156.0.0,Sydney,New South Wales,AU,-33.86785,151.20732,1001,Australia/Sydney
105.219.224.0,105.219.225.255,105.219.0.0,London,England,GB,51.50853,-0.12574,EC1A,Europe/London
101.128.247.0,101.128.247.31,101.128.0.0,Aomori,Aomori,JP,40.8232,140.7708,030-0966,Asia/Tokyo
1.53.204.192,1.53.204.195,1.53.0.0,Nha Trang,Khánh Hòa,VN,12.24507,109.19432,57150,Asia/Ho_Chi_Minh
102.28.78.224,102.28.78.255,102.28.0.0,Kesra,Silyānah,TN,35.81363,9.36434,,Africa/Tunis
1.62.198.20,1.62.198.20,1.62.0.0,Tianjin,Tianjin,CN,39.14222,117.17667,,Asia/Shanghai
1.197.204.109,1.197.204.110,1.197.0.0,Chengdu,Sichuan,CN,30.66667,104.06667,,Asia/Shanghai
1.79.177.100,1.79.177.110,1.79.0.0,Sapporo,Hokkaido,JP,43.06667,141.35,065-0010,Asia/Tokyo
104.183.1.0,104.183.3.255,104.183.0.0,Fair Oaks,California,US,38.64463,-121.27217,95628,America/Los_Angeles
1.41.241.156,1.41.241.156,1.41.0.0,Cowra,New South Wales,AU,-33.83554,148.69663,2794,Australia/Sydney
101.205.211.253,101.205.211.253,101.205.0.0,Chengdu,Sichuan,CN,30.66667,104.06667,,Asia/Shanghai
102.5.59.192,102.5.59.192,102.5.0.0,Isiolo,Isiolo,KE,0.35462,37.58218,,Africa/Nairobi
101.249.128.32,101.249.128.32,101.249.0.0,Bayi,Tibet,CN,29.65812,94.35892,,Asia/Shanghai
104.134.112.0,104.134.117.255,104.134.0.0,Mountain View,California,US,37.4056,-122.0775,94043,America/Los_Angeles
1.239.108.0,1.239.108.255,1.239.0.0,Seoul,Seoul,KR,37.566,126.9784,03141,Asia/Seoul
103.235.164.135,103.235.164.135,103.235.0.0,Rānīpur,Uttar Pradesh,IN,25.25034,79.06204,284205,Asia/Kolkata
1.1.227.112,1.1.227.127,1.1.0.0,Kham Thale So,Nakhon Ratchasima,TH,14.96083,101.94789,30280,Asia/Bangkok
101.20.249.240,101.20.249.243,101.20.0.0,Shenyang,Liaoning,CN,41.79222,123.43278,,Asia/Shanghai
103.226.20.0,103.226.21.255,103.226.0.0,Jaipur,Rajasthan,IN,26.7865,75.5809,302015,Asia/Kolkata
1.156.245.0,1.156.245.59,1.156.0.0,Brisbane,Queensland,AU,-27.54324,153.08993,4122,Australia/Brisbane
101.109.241.160,101.109.241.161,101.109.0.0,Hat Yai,Songkhla,TH,7.00836,100.47668,90110,Asia/Bangkok
105.45.195.0,105.45.195.63,105.45.0.0,Cairo,Cairo,EG,30.06263,31.24967,,Africa/Cairo
101.182.129.102,101.182.129.105,101.182.0.0,Brisbane,Queensland,AU,-27.4679,153.0281,9010,Australia/Brisbane
101.26.122.194,101.26.122.194,101.26.0.0,Qingdao,Shandong,CN,36.06488,120.38042,,Asia/Shanghai
102.45.184.32,102.45.184.39,102.45.0.0,Alexandria,Alexandria,EG,31.20176,29.91582,,Africa/Cairo
104.52.250.32,104.52.250.39,104.52.0.0,Anderson,South Carolina,US,34.5261,-82.6304,29621,America/New_York
101.98.96.224,101.98.96.239,101.98.0.0,Auckland,Auckland,NZ,-36.84853,174.76349,1010,Pacific/Auckland
105.133.2.0,105.133.4.63,105.133.0.0,Casablanca,Casablanca-Settat,MA,33.58831,-7.61138,,Africa/Casablanca
1.207.141.84,1.207.141.85,1.207.0.0,Guizhou,Hubei,CN,30.99695,110.68975,,Asia/Shanghai
105.251.163.128,105.251.164.191,105.251.0.0,Cape Town,Western Cape,ZA,-33.92584,18.42322,7945,Africa/Johannesburg
102.187.124.72,102.187.124.77,102.187.0.0,Alexandria,Alexandria,EG,31.20176,29.91582,,Africa/Cairo
1.10.240.76,1.10.240.95,1.10.0.0,Suphan Buri,Suphanburi,TH,14.47418,100.12218,72150,Asia/Bangkok
102.159.89.232,102.159.89.247,102.159.0.0,Bekalta,Al Munastīr,TN,35.61739,10.99466,,Africa/Tunis
1.157.237.0,1.157.237.7,1.157.0.0,Sydney,New South Wales,AU,-33.7556,151.1519,2072,Australia/Sydney
102.158.124.64,102.158.124.71,102.158.0.0,Zarzis,Madanīn,TN,33.50398,11.11215,,Africa/Tunis
1.2.173.118,1.2.173.119,1.2.0.0,Kong Ra,Phatthalung,TH,7.40272,99.94972,93180,Asia/Bangkok
105.109.96.187,105.109.96.187,105.109.0.0,Constantine,Constantine,DZ,36.365,6.61472,04011,Africa/Algiers
102.70.26.67,102.70.26.67,102.70.0.0,Blantyre,Southern Region,MW,-15.78499,35.00854,311106,Africa/Blantyre
102.185.106.142,102.185.106.143,102.185.0.0,Fāraskūr,Damietta,EG,31.32977,31.71507,,Africa/Cairo
104.55.57.0,104.55.57.61,104.55.0.0,Brownsville,Texas,US,25.9337,-97.5174,78520,America/Chicago
104.234.139.0,104.234.139.255,104.234.0.0,Toronto,Ontario,CA,43.7673,-79.4111,M2N,America/Toronto
104.145.231.115,104.145.231.115,104.145.0.0,New York City,New York,US,40.71427,-74.00597,10004,America/New_York
102.189.50.170,102.189.50.199,102.189.0.0,Cairo,Cairo,EG,30.06263,31.24967,,Africa/Cairo
102.42.111.23,102.42.111.23,102.42.0.0,‘Izbat al Burj,Dakahlia,EG,31.5084,31.84106,,Africa/Cairo
102.42.60.62,102.42.60.63,102.42.0.0,Kafr ad Dawwār,Beheira,EG,31.13379,30.12969,,Africa/Cairo
101.162.86.196,101.162.86.243,101.162.0.0,Townsville,Queensland,AU,-19.26639,146.80569,4810,Australia/Brisbane
105.104.45.0,105.104.45.7,105.104.0.0,Souk Ahras,Souk Ahras,DZ,36.1883,7.9606,41032,Africa/Algiers
103.153.66.16,103.153.66.23,103.153.0.0,Kushtia,Khulna,BD,23.9028,89.11943,7050,Asia/Dhaka
1.146.8.132,1.146.8.133,1.146.0.0,Sydney,New South Wales,AU,-33.8699,151.2025,2006,Australia/Sydney
1.207.96.3,1.207.96.3,1.207.0.0,Nanjing,Jiangsu,CN,32.06167,118.77778,,Asia/Shanghai
1.206.24.239,1.206.24.239,1.206.0.0,Guiyang,Guizhou,CN,26.58333,106.71667,,Asia/Shanghai
102.156.147.112,102.156.147.167,102.156.0.0,Tunis,Tūnis,TN,36.81897,10.16579,,Africa/Tunis
101.191.139.172,101.191.139.185,101.191.0.0,Sydney,New South Wales,AU,-33.9262,151.2542,2034,Australia/Sydney
1.9.197.128,1.9.197.255,1.9.0.0,Kuala Selangor,Selangor,MY,3.35,101.25,45000,Asia/Kuala_Lumpur
101.167.13.32,101.167.13.47,101.167.0.0,Melbourne,Victoria,AU,-37.82817,145.17367,3131,Australia/Melbourne
105.110.226.106,105.110.226.107,105.110.0.0,Meskiana,Oum el Bouaghi,DZ,35.63058,7.66606,04004,Africa/Algiers
101.67.248.8,101.67.248.13,101.67.0.0,Tianjin,Tianjin,CN,39.14222,117.17667,,Asia/Shanghai
1.69.28.104,1.69.28.105,1.69.0.0,Hangzhou,Zhejiang,CN,30.29365,120.16142,,Asia/Shanghai
1.25.59.75,1.25.59.75,1.25.0.0,Qingdao,Shandong,CN,36.06488,120.38042,,Asia/Shanghai
102.191.170.48,102.191.170.53,102.191.0.0,Giza,Giza,EG,30.00944,31.20861,,Africa/Cairo
105.44.203.224,105.44.204.31,105.44.0.0,Cairo,Cairo,EG,30.06263,31.24967,,Africa/Cairo
101.20.27.188,101.20.27.191,101.20.0.0,Langfang,Hebei,CN,39.50972,116.69472,,Asia/Shanghai
101.109.49.236,101.109.49.239,101.109.0.0,Aranyaprathet,Sa Kaeo,TH,13.69276,102.50128,27120,Asia/Bangkok
101.249.119.160,101.249.119.163,101.249.0.0,Nanjing,Jiangsu,CN,32.06167,118.77778,,Asia/Shanghai
102.149.86.192,102.149.87.23,102.149.0.0,Lusaka,Lusaka,ZM,-15.40669,28.28713,,Africa/Lusaka
101.70.28.200,101.70.28.203,101.70.0.0,Jiaxing,Zhejiang,CN,30.7522,120.75,,Asia/Shanghai
105.247.185.0,105.247.185.24,105.247.0.0,Cape Town,Western Cape,ZA,-33.9164,18.4153,8000,Africa/Johannesburg
101.182.143.0,101.182.143.15,101.182.0.0,Noosa Heads,Queensland,AU,-26.4021,153.06285,4566,Australia/Brisbane
105.42.50.0,105.42.50.95,105.42.0.0,Cairo,Cairo,EG,30.06263,31.24967,,Africa/Cairo
1.62.52.73,1.62.52.77,1.62.0.0,Tianjin,Tianjin,CN,39.14222,117.17667,,Asia/Shanghai
1.231.68.0,1.231.68.255,1.231.0.0,Seoul,Seoul,KR,37.6424,127.0731,01748,Asia/Seoul
104.235.84.60,104.235.84.62,104.235.0.0,Brimfield,Illinois,US,40.83893,-89.8865,61517,America/Chicago
102.66.39.240,102.66.39.251,102.66.0.0,Kareedouw,Eastern Cape,ZA,-33.9528,24.29053,6300,Africa/Johannesburg
101.65.35.148,101.65.35.151,101.65.0.0,Tianjin,Tianjin,CN,39.14222,117.17667,,Asia/Shanghai
105.105.115.104,105.105.115.159,105.105.0.0,Biskra,Biskra,DZ,34.9107,5.8691,07020,Africa/Algiers
105.197.41.169,105.197.41.169,105.197.0.0,Alexandria,Alexandria,EG,31.20176,29.91582,,Africa/Cairo
1.174.8.53,1.174.8.53,1.174.0.0,Tainan,Taiwan,TW,22.99083,120.21333,,Asia/Taipei
105.197.79.132,105.197.79.136,105.197.0.0,Ţanţā,Gharbia,EG,30.78847,31.00192,,Africa/Cairo
101.249.2.47,101.249.2.47,101.249.0.0,Chengdu,Sichuan,CN,30.66667,104.06667,,Asia/Shanghai
1.235.4.0,1.235.4.255,1.235.0.0,Seoul,Seoul,KR,37.566,126.9784,03141,Asia/Seoul
101.178.221.176,101.178.221.183,101.178.0.0,Taree,New South Wales,AU,-31.91099,152.45387,2430,Australia/Sydney
104.8.56.80,104.8.56.85,104.8.0.0,Little Rock,Arkansas,US,34.74648,-92.28959,72201,America/Chicago
105.172.11.0,105.172.11.35,105.172.0.0,Luanda,Luanda,AO,-8.83682,13.23432,,Africa/Luanda
1.162.250.150,1.162.250.153,1.162.0.0,Hualien City,Taiwan,TW,23.97694,121.60444,,Asia/Taipei
1.55.53.196,1.55.53.215,1.55.0.0,Haiphong,Haiphong,VN,20.86481,106.68345,04000,Asia/Bangkok
102.5.187.112,102.5.187.133,102.5.0.0,Nairobi,Nairobi Area,KE,-1.28333,36.81667,,Africa/Nairobi
101.139.91.0,101.139.92.0,101.139.0.0,Banqiao,Taipei,TW,25.01427,121.46719,,Asia/Taipei
104.249.208.160,104.249.208.191,104.249.0.0,Edmonton,Alberta,CA,53.5428,-113.4974,T5J,America/Edmonton
104.235.111.56,104.235.111.67,104.235.0.0,Oregon,Illinois,US,42.01475,-89.33233,61061,America/Chicago
1.225.44.0,1.225.44.255,1.225.0.0,Seoul,Seoul,KR,37.5552,127.0124,04593,Asia/Seoul
104.193.157.32,104.193.157.63,104.193.0.0,Sierra Brooks,California,US,39.64241,-120.21659,96118,America/Los_Angeles
101.190.149.115,101.190.149.115,101.190.0.0,Cobargo,New South Wales,AU,-36.38788,149.88634,2550,Australia/Sydney
1.158.167.14,1.158.167.15,1.158.0.0,Mount Gambier,South Australia,AU,-37.8318,140.77919,5290,Australia/Adelaide
1.4.156.154,1.4.156.183,1.4.0.0,Yala,Yala,TH,6.53995,101.28128,95000,Asia/Bangkok
103.51.56.80,103.51.56.85,103.51.0.0,Bhātpāra,West Bengal,IN,22.8333,88.3833,743127,Asia/Kolkata
1.181.155.64,1.181.155.88,1.181.0.0,Hangzhou,Zhejiang,CN,30.29365,120.16142,,Asia/Shanghai
1.75.12.83,1.75.12.83,1.75.0.0,Yokohama,Kanagawa,JP,35.43333,139.65,220-8588,Asia/Tokyo
105.186.190.160,105.186.190.163,105.186.0.0,Parys,Orange Free State,ZA,-26.9033,27.45727,9585,Africa/Johannesburg
105.61.84.16,105.61.84.31,105.61.0.0,Ol Kalou,Nyandarua,KE,-0.27088,36.37917,,Africa/Nairobi
101.161.105.20,101.161.105.21,101.161.0.0,Coongulla,Victoria,AU,-37.89125,146.78603,3860,Australia/Melbourne
101.191.216.48,101.191.216.55,101.191.0.0,Sydney,New South Wales,AU,-33.8678,151.2073,1041,Australia/Sydney
103.168.20.0,103.168.20.255,103.168.0.0,Lucknow,Uttar Pradesh,IN,26.83928,80.92313,226004,Asia/Kolkata
102.185.205.112,102.185.205.175,102.185.0.0,Alexandria,Alexandria,EG,31.20176,29.91582,,Africa/Cairo
105.42.68.16,105.42.68.63,105.42.0.0,Cairo,Cairo,EG,30.06263,31.24967,,Africa/Cairo
105.34.175.160,105.34.175.191,105.34.0.0,Asyūţ,Asyut,EG,27.18096,31.18368,,Africa/Cairo
1.54.88.0,1.54.88.255,1.54.0.0,Hanoi,Hanoi,VN,21.0245,105.84117,10000,Asia/Bangkok
1.174.7.250,1.174.7.250,1.174.0.0,Tainan,Taiwan,TW,22.99083,120.21333,,Asia/Taipei
101.166.67.176,101.166.67.191,101.166.0.0,Sydney,New South Wales,AU,-33.758,150.67319,2750,Australia/Sydney
101.249.197.145,101.249.197.146,101.249.0.0,Rikaze,Tibet,CN,29.25,88.88333,,Asia/Shanghai
102.1.18.72,102.1.18.79,102.1.0.0,Webuye,Bungoma,KE,0.6004,34.77119,,Africa/Nairobi
1.53.44.173,1.53.44.173,1.53.0.0,Dien Bien Phu,Ðiện Biên,VN,21.38602,103.02301,32150,Asia/Bangkok
105.149.148.192,105.149.148.207,105.149.0.0,Kenitra,Rabat-Salé-Kénitra,MA,34.26101,-6.5802,,Africa/Casablanca
1.1.197.133,1.1.197.133,1.1.0.0,So Phisai,Bueng Kan,TH,18.0772,103.4432,43170,Asia/Bangkok
105.61.109.136,105.61.109.143,105.61.0.0,Mombasa,Mombasa,KE,-4.05466,39.66359,,Africa/Nairobi
103.99.3.83,103.99.3.83,103.99.0.0,Vinh,Nghệ An,VN,18.67337,105.69232,43199,Asia/Bangkok
1.69.231.186,1.69.231.187,1.69.0.0,Chengdu,Sichuan,CN,30.66667,104.06667,,Asia/Shanghai
101.85.107.0,101.85.255.255,101.85.0.0,Shanghai,Shanghai,CN,31.22222,121.45806,,Asia/Shanghai
102.189.160.0,102.189.160.5,102.189.0.0,Alexandria,Alexandria,EG,31.20176,29.91582,,Africa/Cairo
103.125.131.4,103.125.131.255,103.125.0.0,Delhi,Delhi,IN,28.6453,77.2128,110004,Asia/Kolkata
105.68.173.224,105.68.173.231,105.68.0.0,Tétouan,Tanger-Tetouan-Al Hoceima,MA,35.57845,-5.36837,,Africa/Casablanca
104.195.194.208,104.195.194.215,104.195.0.0,Kitchener,Ontario,CA,43.4581,-80.4818,N2H,America/Toronto
1.190.28.64,1.190.28.71,1.190.0.0,Tianjin,Tianjin,CN,39.14222,117.17667,,Asia/Shanghai
1.53.151.112,1.53.151.112,1.53.0.0,Phú Vang,Thừa Thiên-Huế,VN,16.43911,107.71438,49950,Asia/Bangkok
104.169.185.92,104.169.185.96,104.169.0.0,Franklin,North Carolina,US,35.18232,-83.38154,28734,America/New_York
102.152.37.192,102.152.37.223,102.152.0.0,Banbalah,Al Munastīr,TN,35.7,10.8,,Africa/Tunis
101.249.146.163,101.249.146.163,101.249.0.0,Bayi,Tibet,CN,29.65812,94.35892,,Asia/Shanghai
1.226.225.0,1.226.225.255,1.226.0.0,Ansan-si,Gyeonggi-do,KR,37.3998,126.7998,14975,Asia/Seoul
1.52.105.11,1.52.105.11,1.52.0.0,Biên Hòa,Đồng Nai,VN,10.94469,106.82432,76199,Asia/Ho_Chi_Minh
1.156.133.168,1.156.133.179,1.156.0.0,Brisbane,Queensland,AU,-27.4679,153.0281,9010,Australia/Brisbane
1.233.46.0,1.233.46.255,1.233.0.0,Seongnam-si,Gyeonggi-do,KR,37.4777,127.1852,12700,Asia/Seoul
104.28.34.48,104.28.34.49,104.28.0.0,Libreville,Estuaire,GA,0.39241,9.45356,,Africa/Libreville
104.235.141.19,104.235.141.19,104.235.0.0,West Salem,Illinois,US,38.52088,-88.00476,62476,America/Chicago
103.146.204.0,103.146.204.255,103.146.0.0,Gwangmyeong,Gyeonggi-do,KR,37.47722,126.86639,14212,Asia/Seoul
1.32.103.168,1.32.103.168,1.32.0.0,Petaling Jaya,Selangor,MY,3.10726,101.60671,46547,Asia/Kuala_Lumpur
105.194.212.40,105.194.213.255,105.194.0.0,Cairo,Cairo,EG,30.06263,31.24967,,Africa/Cairo
102.139.70.128,102.139.70.255,102.139.0.0,Aboisso,Comoé,CI,5.46779,-3.20711,,Africa/Abidjan
105.207.248.220,105.207.248.251,105.207.0.0,Cairo,Cairo,EG,30.06263,31.24967,,Africa/Cairo
102.167.166.16,102.167.166.23,102.167.0.0,Mombasa,Mombasa,KE,-4.05466,39.66359,,Africa/Nairobi
103.91.84.104,103.91.84.109,103.91.0.0,Rasipuram,Tamil Nadu,IN,11.46009,78.18635,637408,Asia/Kolkata
105.197.33.80,105.197.33.127,105.197.0.0,Cairo,Cairo,EG,30.06263,31.24967,,Africa/Cairo
101.27.194.80,101.27.194.84,101.27.0.0,Tianjin,Tianjin,CN,39.14222,117.17667,,Asia/Shanghai
104.55.189.160,104.55.189.167,104.55.0.0,South Point,Texas,US,25.86869,-97.38359,78521,America/Chicago
101.177.19.89,101.177.19.103,101.177.0.0,Townsville,Queensland,AU,-19.26639,146.80569,4810,Australia/Brisbane
1.228.187.0,1.228.187.255,1.228.0.0,Sejong,Sejong-si,KR,36.5964,127.2893,30030,Asia/Seoul
103.213.1.0,103.213.1.255,103.213.0.0,Puducherry,Puducherry,IN,11.7681,79.3947,607403,Asia/Kolkata
105.35.0.139,105.35.0.139,105.35.0.0,Abū Şīr,Giza,EG,29.88333,31.21667,,Africa/Cairo
102.109.52.40,102.109.52.71,102.109.0.0,As Sanad,Gafsa,TN,34.4628,9.26404,,Africa/Tunis
101.180.143.248,101.180.143.255,101.180.0.0,Melbourne,Victoria,AU,-37.8152,144.9632,3005,Australia/Melbourne
105.133.159.128,105.133.160.191,105.133.0.0,Casablanca,Casablanca-Settat,MA,33.58831,-7.61138,,Africa/Casablanca
1.200.188.176,1.200.188.183,1.200.0.0,Kaohsiung,Takao,TW,22.61626,120.31333,,Asia/Taipei
105.40.59.32,105.40.59.63,105.40.0.0,Dayrūţ,Asyut,EG,27.55642,30.81057,,Africa/Cairo
103.20.184.0,103.20.187.255,103.20.0.0,Batam,Riau,ID,1.14937,104.02491,,Asia/Jakarta
1.9.123.127,1.9.123.127,1.9.0.0,Muar,Johor,MY,2.0442,102.5689,84200,Asia/Kuala_Lumpur
102.42.207.34,102.42.207.47,102.42.0.0,Ţanţā,Gharbia,EG,30.78847,31.00192,,Africa/Cairo
100.14.65.0,100.14.66.71,100.14.0.0,West Chester,Pennsylvania,US,39.9441,-75.5882,19382,America/New_York
102.156.189.218,102.156.189.219,102.156.0.0,Le Krib,Silyānah,TN,36.32802,9.13613,,Africa/Tunis
1.10.169.164,1.10.169.165,1.10.0.0,Surat Thani,Surat Thani,TH,9.14011,99.33311,84150,Asia/Bangkok
102.78.138.128,102.78.138.191,102.78.0.0,Azilal,Béni Mellal-Khénifra,MA,31.96156,-6.57109,,Africa/Casablanca
105.165.201.112,105.165.201.191,105.165.0.0,Nairobi,Nairobi Area,KE,-1.28333,36.81667,,Africa/Nairobi
103.97.170.25,103.97.170.25,103.97.0.0,Laverton,Victoria,AU,-37.86201,144.76979,3028,Australia/Melbourne
101.183.29.0,101.183.29.0,101.183.0.0,Newcastle,New South Wales,AU,-32.94243,151.74777,2291,Australia/Sydney
101.249.145.80,101.249.145.83,101.249.0.0,Bayi,Tibet,CN,29.65812,94.35892,,Asia/Shanghai
1.225.138.0,1.225.138.255,1.225.0.0,Seoul,Seoul,KR,37.566,126.9784,03141,Asia/Seoul
1.197.244.222,1.197.244.226,1.197.0.0,Hangzhou,Zhejiang,CN,30.29365,120.16142,,Asia/Shanghai
1.24.184.197,1.24.184.201,1.24.0.0,Tianjin,Tianjin,CN,39.14222,117.17667,,Asia/Shanghai
101.180.195.64,101.180.195.83,101.180.0.0,Hobart,Tasmania,AU,-42.95785,147.31355,7050,Australia/Hobart
1.54.153.237,1.54.153.237,1.54.0.0,Vũng Tàu,Bà Rịa-Vũng Tàu,VN,10.34599,107.08426,78254,Asia/Ho_Chi_Minh
102.42.113.0,102.42.113.255,102.42.0.0,Al Manşūrah,Dakahlia,EG,31.03637,31.38069,,Africa/Cairo
105.35.80.160,105.35.80.191,105.35.0.0,Al Badārī,Asyut,EG,26.99306,31.41605,,Africa/Cairo
101.20.69.86,101.20.69.87,101.20.0.0,Qingdao,Shandong,CN,36.06488,120.38042,,Asia/Shanghai
103.110.60.0,103.110.63.255,103.110.0.0,Hong Kong,Central and Western,HK,22.27832,114.17469,,Asia/Hong_Kong
104.177.95.0,104.177.95.255,104.177.0.0,Atlanta,Georgia,US,33.7217,-84.3339,30316,America/New_York
105.159.180.198,105.159.180.199,105.159.0.0,Missour,Fès-Meknès,MA,33.04893,-3.98947,,Africa/Casablanca
1.54.118.214,1.54.118.255,1.54.0.0,Quận Năm,Ho Chi Minh,VN,10.75567,106.66745,70066,Asia/Ho_Chi_Minh
1.9.156.106,1.9.156.106,1.9.0.0,Johor Bahru,Johor,MY,1.4655,103.7578,80500,Asia/Kuala_Lumpur
105.155.222.236,105.155.222.239,105.155.0.0,Sidi Qacem,Rabat-Salé-Kénitra,MA,34.22149,-5.70775,,Africa/Casablanca
1.194.83.240,1.194.83.245,1.194.0.0,Nanjing,Jiangsu,CN,32.06167,118.77778,,Asia/Shanghai
102.109.94.0,102.109.94.15,102.109.0.0,As Sanad,Gafsa,TN,34.4628,9.26404,,Africa/Tunis
105.36.79.84,105.36.79.87,105.36.0.0,Port Said,Port Said,EG,31.26531,32.3019,,Africa/Cairo
105.38.148.0,105.38.148.127,105.38.0.0,Al Khānkah,Qalyubia,EG,30.21035,31.36812,,Africa/Cairo
101.136.187.109,101.136.187.110,101.136.0.0,Taipei,Taiwan,TW,25.04776,121.53185,,Asia/Taipei
105.111.144.0,105.111.144.3,105.111.0.0,Aïn Bessem,Bouira,DZ,36.2696,3.6636,10042,Africa/Algiers
101.137.0.200,101.137.0.203,101.137.0.0,Keelung,Taiwan,TW,25.12825,121.7419,,Asia/Taipei
1.31.20.226,1.31.20.235,1.31.0.0,Qingdao,Shandong,CN,36.06488,120.38042,,Asia/Shanghai
102.42.198.0,102.42.198.71,102.42.0.0,Ţanţā,Gharbia,EG,30.78847,31.00192,,Africa/Cairo
101.167.37.32,101.167.37.36,101.167.0.0,Townsville,Queensland,AU,-19.26639,146.80569,4810,Australia/Brisbane
1.85.233.0,1.85.233.255,1.85.0.0,Mazhaozhen,Shaanxi,CN,34.07026,108.18998,,Asia/Shanghai
105.34.17.64,105.34.17.115,105.34.0.0,Cairo,Cairo,EG,30.06263,31.24967,,Africa/Cairo
101.249.200.29,101.249.200.29,101.249.0.0,Bayi,Tibet,CN,29.65812,94.35892,,Asia/Shanghai
102.44.89.138,102.44.92.15,102.44.0.0,Cairo,Cairo,EG,30.06263,31.24967,,Africa/Cairo
1.52.168.8,1.52.168.15,1.52.0.0,Ho Chi Minh City,Ho Chi Minh,VN,10.82302,106.62965,71606,Asia/Ho_Chi_Minh
104.6.32.0,104.6.32.255,104.6.0.0,Austin,Texas,US,30.4254,-97.7195,78727,America/Chicago
1.2.156.160,1.2.156.163,1.2.0.0,Si Bun Rueang,Nong Bua Lam Phu,TH,16.96705,102.27607,39180,Asia/Bangkok
102.156.8.16,102.156.8.63,102.156.0.0,Tunis,Tūnis,TN,36.81897,10.16579,,Africa/Tunis
1.20.34.152,1.20.34.159,1.20.0.0,Thepha,Songkhla,TH,6.82936,100.96431,90150,Asia/Bangkok
101.175.47.128,101.175.47.143,101.175.0.0,Colo Vale,New South Wales,AU,-34.40095,150.48573,2575,Australia/Sydney
102.169.190.4,102.169.190.7,102.169.0.0,Gabès,Qābis,TN,33.88146,10.0982,,Africa/Tunis
105.156.95.116,105.156.95.159,105.156.0.0,Meknès,Fès-Meknès,MA,33.89352,-5.54727,,Africa/Casablanca
104.15.136.182,104.15.136.182,104.15.0.0,Jackson,Missouri,US,37.38227,-89.66621,63755,America/Chicago
102.185.169.115,102.185.169.115,102.185.0.0,Alexandria,Alexandria,EG,31.20176,29.91582,,Africa/Cairo
1.192.182.66,1.192.182.81,1.192.0.0,Zhengzhou,Henan,CN,34.75778,113.64861,,Asia/Shanghai
102.53.100.0,102.53.100.255,102.53.0.0,Meknès,Fès-Meknès,MA,33.89352,-5.54727,,Africa/Casablanca
105.33.252.128,105.33.252.255,105.33.0.0,Al Qūşīyah,Asyut,EG,27.44023,30.81712,,Africa/Cairo
104.194.18.2,104.194.18.2,104.194.0.0,Toronto,Ontario,CA,43.70011,-79.4163,M5A,America/Toronto
105.248.207.128,105.248.207.255,105.248.0.0,Peddie,Eastern Cape,ZA,-33.2,27.1167,5643,Africa/Johannesburg
105.92.182.52,105.92.182.52,105.92.0.0,Cairo,Cairo,EG,30.06263,31.24967,,Africa/Cairo
104.176.101.112,104.176.101.118,104.176.0.0,Demopolis,Alabama,US,32.51764,-87.8364,36732,America/Chicago
1.15.62.128,1.15.62.255,1.15.0.0,Shenzhen,Guangdong,CN,22.54554,114.0683,,Asia/Shanghai
101.109.225.124,101.109.225.127,101.109.0.0,Phichit,Phichit,TH,16.44184,100.34879,66000,Asia/Bangkok
101.189.161.33,101.189.161.33,101.189.0.0,Toowoomba,Queensland,AU,-27.56056,151.95386,4350,Australia/Brisbane
105.226.9.52,105.226.9.53,105.226.0.0,Empangeni,KwaZulu-Natal,ZA,-28.75,31.8999,3880,Africa/Johannesburg
102.185.107.15,102.185.107.15,102.185.0.0,Alexandria,Alexandria,EG,31.20176,29.91582,,Africa/Cairo
105.106.16.160,105.106.16.165,105.106.0.0,Batna,Batna,DZ,35.4913,6.0986,05093,Africa/Algiers
103.76.168.140,103.76.168.143,103.76.0.0,Palembang,South Sumatra,ID,-2.91673,104.7458,,Asia/Jakarta
102.40.110.27,102.40.110.30,102.40.0.0,Al Ḩawāmidīyah,Giza,EG,29.9,31.25,,Africa/Cairo
104.187.201.4,104.187.201.15,104.187.0.0,Fernley,Nevada,US,39.60797,-119.25183,89408,America/Los_Angeles
105.242.128.223,105.242.128.223,105.242.0.0,Bethlehem,Orange Free State,ZA,-28.23078,28.30707,9700,Africa/Johannesburg
105.39.222.32,105.39.222.95,105.39.0.0,Port Said,Port Said,EG,31.26531,32.3019,,Africa/Cairo
105.140.66.128,105.140.66.199,105.140.0.0,Casablanca,Casablanca-Settat,MA,33.58831,-7.61138,,Africa/Casablanca
1.0.216.164,1.0.216.165,1.0.0.0,Krabi,Krabi,TH,8.07257,98.91052,81130,Asia/Bangkok
101.249.43.249,101.249.43.251,101.249.0.0,Rikaze,Tibet,CN,29.25,88.88333,,Asia/Shanghai
105.62.243.8,105.62.243.31,105.62.0.0,Naivasha,Nakuru,KE,-0.71383,36.43261,,Africa/Nairobi
104.254.101.132,104.254.101.132,104.254.0.0,Fresno,California,US,36.74773,-119.77237,93737,America/Los_Angeles
103.248.19.48,103.248.19.55,103.248.0.0,Adelaide,South Australia,AU,-34.92866,138.59863,5000,Australia/Adelaide
100.38.239.0,100.38.239.255,100.38.0.0,Yonkers,New York,US,40.9461,-73.8669,10701,America/New_York
102.156.38.192,102.156.38.207,102.156.0.0,Ariana,Ariana,TN,36.86012,10.19337,,Africa/Tunis
101.249.78.64,101.249.78.67,101.249.0.0,Bayi,Tibet,CN,29.65812,94.35892,,Asia/Shanghai
1.0.147.93,1.0.147.93,1.0.0.0,Ko Samui,Surat Thani,TH,9.53567,99.93567,84140,Asia/Bangkok
1.197.130.107,1.197.130.109,1.197.0.0,Hangzhou,Zhejiang,CN,30.29365,120.16142,,Asia/Shanghai
102.179.167.112,102.179.167.255,102.179.0.0,Ouagadougou,Centre,BF,12.36566,-1.53388,,Africa/Ouagadougou
1.84.99.104,1.84.99.111,1.84.0.0,Chengdu,Sichuan,CN,30.66667,104.06667,,Asia/Shanghai
102.189.230.208,102.189.230.211,102.189.0.0,Basyūn,Gharbia,EG,30.93976,30.81338,,Africa/Cairo
105.163.43.108,105.163.43.141,105.163.0.0,Nairobi,Nairobi Area,KE,-1.28333,36.81667,,Africa/Nairobi
102.176.1.73,102.176.1.73,102.176.0.0,Cape Coast,Central,GH,5.10535,-1.2466,,Africa/Accra
103.170.138.0,103.170.138.15,103.170.0.0,Dhaka,Dhaka,BD,23.7167,90.35,1312,Asia/Dhaka
1.206.120.172,1.206.120.173,1.206.0.0,Guizhou,Hubei,CN,30.99695,110.68975,,Asia/Shanghai
1.206.88.0,1.206.88.7,1.206.0.0,Suzhou,Jiangsu,CN,31.30408,120.59538,,Asia/Shanghai
105.154.199.104,105.154.199.127,105.154.0.0,Marrakesh,Marrakesh-Safi,MA,31.63416,-7.99994,,Africa/Casablanca
101.99.74.106,101.99.74.111,101.99.0.0,Kuala Lumpur,Kuala Lumpur,MY,3.1412,101.68653,50050,Asia/Kuala_Lumpur
104.52.67.155,104.52.67.179,104.52.0.0,York,South Carolina,US,34.9943,-81.24202,29745,America/New_York
1.175.33.50,1.175.33.50,1.175.0.0,Taitung,Taiwan,TW,22.75991,121.14457,,Asia/Taipei
104.191.53.58,104.191.53.59,104.191.0.0,Augusta,Georgia,US,33.47097,-81.97484,30901,America/New_York
101.51.19.120,101.51.19.123,101.51.0.0,Tha Tum,Surin,TH,15.3195,103.67542,31150,Asia/Bangkok
1.207.11.100,1.207.11.103,1.207.0.0,Chengdu,Sichuan,CN,30.66667,104.06667,,Asia/Shanghai
102.146.162.0,102.146.162.31,102.146.0.0,Serenje,Central,ZM,-13.23251,30.23522,,Africa/Lusaka
1.20.46.130,1.20.46.139,1.20.0.0,Bangkok,Bangkok,TH,13.75398,100.50144,10200,Asia/Bangkok
105.232.104.48,105.232.104.51,105.232.0.0,Oshakati,Oshana,NA,-17.78833,15.70436,,Africa/Windhoek
102.72.133.240,102.72.133.255,102.72.0.0,Tétouan,Tanger-Tetouan-Al Hoceima,MA,35.57845,-5.36837,,Africa/Casablanca
1.246.8.0,1.246.8.255,1.246.0.0,Kimhae,Gyeongsangnam-do,KR,35.2646,128.8731,50899,Asia/Seoul
101.248.248.160,101.248.248.163,101.248.0.0,Hangzhou,Zhejiang,CN,30.29365,120.16142,,Asia/Shanghai
104.219.36.102,104.219.36.102,104.219.0.0,Sullivan,Illinois,US,39.59948,-88.60784,61951,America/Chicago
104.188.207.0,104.188.211.255,104.188.0.0,Redmond,Washington,US,47.67399,-122.12151,98052,America/Los_Angeles
104.5.50.185,104.5.50.255,104.5.0.0,Newport,Arkansas,US,35.6048,-91.2818,72112,America/Chicago
104.28.85.48,104.28.85.49,104.28.0.0,Colorado Springs,Colorado,US,38.83388,-104.82136,80901,America/Denver
1.70.243.105,1.70.243.105,1.70.0.0,Chengdu,Sichuan,CN,30.66667,104.06667,,Asia/Shanghai
102.158.88.128,102.158.88.159,102.158.0.0,Takelsa,Nābul,TN,36.78333,10.63333,,Africa/Tunis
1.14.32.0,1.14.33.255,1.14.0.0,Beijing,Beijing,CN,39.9075,116.39723,,Asia/Shanghai
101.64.80.140,101.64.80.142,101.64.0.0,Ningbo,Zhejiang,CN,29.87819,121.54945,,Asia/Shanghai
102.82.38.0,102.82.38.255,102.82.0.0,Bweyogerere,Central Region,UG,0.35773,32.66332,,Africa/Kampala
103.251.214.166,103.251.214.175,103.251.0.0,Rājkot,Gujarat,IN,22.29161,70.79322,360004,Asia/Kolkata
101.138.135.162,101.138.135.162,101.138.0.0,Taichung,Taiwan,TW,24.1469,120.6839,,Asia/Taipei
104.28.4.23,104.28.4.24,104.28.0.0,Chongqing,Chongqing,CN,29.56026,106.55771,,Asia/Shanghai
105.92.177.191,105.92.177.193,105.92.0.0,Cairo,Cairo,EG,30.06263,31.24967,,Africa/Cairo
101.183.131.188,101.183.131.195,101.183.0.0,Cairns,Queensland,AU,-16.92366,145.76613,4870,Australia/Brisbane
1.199.139.152,1.199.139.152,1.199.0.0,Chengdu,Sichuan,CN,30.66667,104.06667,,Asia/Shanghai
104.11.106.216,104.11.106.255,104.11.0.0,Houston,Texas,US,29.7738,-95.598,77079,America/Chicago
105.135.144.0,105.135.144.63,105.135.0.0,Tétouan,Tanger-Tetouan-Al Hoceima,MA,35.57845,-5.36837,,Africa/Casablanca
101.176.102.208,101.176.102.215,101.176.0.0,Hopetoun Park,Victoria,AU,-37.64227,144.5757,3337,Australia/Melbourne
1.50.67.145,1.50.67.145,1.50.0.0,Hangzhou,Zhejiang,CN,30.29365,120.16142,,Asia/Shanghai
1.158.245.24,1.158.245.27,1.158.0.0,Port Augusta,South Australia,AU,-32.49597,137.77281,5700,Australia/Adelaide
104.44.40.92,104.44.40.93,104.44.0.0,Fort Lauderdale,Florida,US,26.12231,-80.14338,33302,America/New_York
104.216.121.0,104.216.143.255,104.216.0.0,Los Angeles,California,US,34.05223,-118.24368,90009,America/Los_Angeles
104.192.154.116,104.192.154.117,104.192.0.0,Beaverlodge,Alberta,CA,55.21664,-119.43605,T8V,America/Edmonton
101.181.54.84,101.181.54.87,101.181.0.0,Melbourne,Victoria,AU,-37.9211,145.2492,3178,Australia/Melbourne
101.109.71.99,101.109.71.101,101.109.0.0,Surat Thani,Surat Thani,TH,9.14011,99.33311,84150,Asia/Bangkok
105.217.26.0,105.217.27.255,105.217.0.0,London,England,GB,51.50853,-0.12574,EC1A,Europe/London
102.1.133.0,102.1.133.51,102.1.0.0,Nairobi,Nairobi Area,KE,-1.28333,36.81667,,Africa/Nairobi
102.167.32.192,102.167.32.207,102.167.0.0,Nairobi,Nairobi Area,KE,-1.28333,36.81667,,Africa/Nairobi
102.25.183.224,102.25.183.255,102.25.0.0,Beni Hassane,Al Munastīr,TN,35.5672,10.80869,,Africa/Tunis
101.143.152.0,101.143.154.255,101.143.0.0,Sakai,Ōsaka,JP,34.334,135.2129,599-0000,Asia/Tokyo
101.128.150.208,101.128.150.215,101.128.0.0,Wajima,Ishikawa,JP,37.3822,136.8892,928-0032,Asia/Tokyo
104.235.130.208,104.235.130.208,104.235.0.0,Newton,Illinois,US,38.99088,-88.16254,62448,America/Chicago
105.111.52.200,105.111.52.203,105.111.0.0,Biskra,Biskra,DZ,34.8053,5.7341,07006,Africa/Algiers
101.58.92.94,101.58.92.94,101.58.0.0,Bari,Apulia,IT,41.12066,16.86982,70100,Europe/Rome
101.20.224.188,101.20.224.193,101.20.0.0,Langfang,Hebei,CN,39.50972,116.69472,,Asia/Shanghai
1.157.222.204,1.157.222.207,1.157.0.0,Bega,New South Wales,AU,-36.67392,149.84178,2550,Australia/Sydney
105.107.106.176,105.107.106.191,105.107.0.0,Chelghoum el Aïd,Mila,DZ,36.16286,6.16651,43013,Africa/Algiers
102.40.175.0,102.40.175.255,102.40.0.0,Al Maḩallah al Kubrá,Gharbia,EG,30.97063,31.1669,,Africa/Cairo
103.42.127.104,103.42.127.105,103.42.0.0,Mātābhānga,West Bengal,IN,26.3144,89.3013,736157,Asia/Kolkata
101.166.42.64,101.166.42.65,101.166.0.0,Taree,New South Wales,AU,-31.91099,152.45387,2430,Australia/Sydney
101.249.18.175,101.249.18.175,101.249.0.0,Chengdu,Sichuan,CN,30.66667,104.06667,,Asia/Shanghai
1.40.28.0,1.40.28.60,1.40.0.0,Sydney,New South Wales,AU,-33.9475,151.1522,1419,Australia/Sydney
1.31.230.128,1.31.230.191,1.31.0.0,Qingdao,Shandong,CN,36.06488,120.38042,,Asia/Shanghai
105.47.103.248,105.47.104.31,105.47.0.0,Cairo,Cairo,EG,30.06263,31.24967,,Africa/Cairo
102.191.47.134,102.191.47.134,102.191.0.0,Banī Mazār,Minya,EG,28.49456,30.80526,,Africa/Cairo
102.78.69.80,102.78.69.87,102.78.0.0,Azilal,Béni Mellal-Khénifra,MA,31.96156,-6.57109,,Africa/Casablanca
104.254.102.210,104.254.102.210,104.254.0.0,Kerman,California,US,36.72356,-120.05988,93630,America/Los_Angeles
101.175.172.164,101.175.172.165,101.175.0.0,Sydney,New South Wales,AU,-33.7716,151.1138,2109,Australia/Sydney
104.235.63.148,104.235.63.153,104.235.0.0,Rockford,Illinois,US,42.2166,-89.0512,61109,America/Chicago
105.108.97.84,105.108.97.99,105.108.0.0,Sétif,Sétif,DZ,36.104,5.4368,19036,Africa/Algiers
101.182.167.196,101.182.167.201,101.182.0.0,Brisbane,Queensland,AU,-27.4679,153.0281,9010,Australia/Brisbane
103.153.77.184,103.153.77.187,103.153.0.0,Ho Chi Minh City,Ho Chi Minh,VN,10.82302,106.62965,71606,Asia/Ho_Chi_Minh
101.50.124.164,101.50.124.165,101.50.0.0,Islamabad,Islamabad,PK,33.6954,72.9771,45200,Asia/Karachi
105.131.102.128,105.131.102.255,105.131.0.0,Kenitra,Rabat-Salé-Kénitra,MA,34.26101,-6.5802,,Africa/Casablanca
105.80.248.64,105.80.248.111,105.80.0.0,Cairo,Cairo,EG,30.06263,31.24967,,Africa/Cairo
104.240.41.112,104.240.41.115,104.240.0.0,Cornfields,Arizona,US,35.65223,-109.67928,86505,America/Denver
101.56.65.63,101.56.65.63,101.56.0.0,Florence,Tuscany,IT,43.77925,11.24626,50100,Europe/Rome
105.25.161.0,105.25.164.255,105.25.0.0,Quatre Bornes,Plaines Wilhems,MU,-20.26381,57.4791,,Indian/Mauritius
102.67.98.24,102.67.98.25,102.67.0.0,Wolf Trap,Virginia,US,38.93983,-77.28609,22182,America/New_York
101.70.139.220,101.70.139.220,101.70.0.0,Tianjin,Tianjin,CN,39.14222,117.17667,,Asia/Shanghai
105.72.242.32,105.72.242.40,105.72.0.0,Casablanca,Casablanca-Settat,MA,33.58831,-7.61138,,Africa/Casablanca
102.40.231.104,102.40.231.104,102.40.0.0,Cairo,Cairo,EG,30.06263,31.24967,,Africa/Cairo
101.249.43.101,101.249.43.101,101.249.0.0,Rikaze,Tibet,CN,29.25,88.88333,,Asia/Shanghai
1.158.94.160,1.158.94.175,1.158.0.0,Sydney,New South Wales,AU,-33.8678,151.2073,1041,Australia/Sydney
1.84.215.188,1.84.215.188,1.84.0.0,Hangzhou,Zhejiang,CN,30.29365,120.16142,,Asia/Shanghai
103.137.78.0,103.137.79.255,103.137.0.0,Jinrongjie,Beijing,CN,39.91222,116.35615,,Asia/Shanghai
1.156.2.186,1.156.2.187,1.156.0.0,Condobolin,New South Wales,AU,-33.08877,147.15139,2877,Australia/Sydney
105.34.149.48,105.34.149.55,105.34.0.0,Sumusţā as Sulţānī,Beni Suweif,EG,28.91667,30.85,,Africa/Cairo
102.106.221.232,102.106.221.239,102.106.0.0,Zarzis,Madanīn,TN,33.50398,11.11215,,Africa/Tunis
101.176.23.194,101.176.23.195,101.176.0.0,Koroit,Victoria,AU,-38.2918,142.36729,3282,Australia/Melbourne
102.144.97.192,102.144.97.248,102.144.0.0,Lusaka,Lusaka,ZM,-15.40669,28.28713,,Africa/Lusaka
101.189.218.8,101.189.218.11,101.189.0.0,Yeppoon,Queensland,AU,-23.12683,150.74406,4703,Australia/Brisbane
101.249.25.111,101.249.25.113,101.249.0.0,Bayi,Tibet,CN,29.65812,94.35892,,Asia/Shanghai
1.212.108.184,1.212.108.255,1.212.0.0,Seoul,Seoul,KR,37.566,126.9784,03141,Asia/Seoul
1.187.113.87,1.187.113.87,1.187.0.0,Pune,Maharashtra,IN,18.51957,73.85535,411001,Asia/Kolkata
105.165.203.192,105.165.206.49,105.165.0.0,Nairobi,Nairobi Area,KE,-1.28333,36.81667,,Africa/Nairobi
101.75.108.64,101.75.108.119,101.75.0.0,Tianjin,Tianjin,CN,39.14222,117.17667,,Asia/Shanghai
105.242.77.160,105.242.77.255,105.242.0.0,Witbank,Mpumalanga,ZA,-25.8667,29.2333,1082,Africa/Johannesburg
104.28.101.229,104.28.101.230,104.28.0.0,Okazaki,Aichi,JP,34.95,137.16667,437-1312,Asia/Tokyo
101.176.167.0,101.176.167.7,101.176.0.0,Sydney,New South Wales,AU,-33.87025,150.94698,2165,Australia/Sydney
105.92.169.217,105.92.169.219,105.92.0.0,Aswan,Aswan,EG,24.09082,32.89942,,Africa/Cairo
105.184.71.174,105.184.71.175,105.184.0.0,Knysna,Western Cape,ZA,-34.0333,23.0333,6583,Africa/Johannesburg
101.176.139.200,101.176.139.218,101.176.0.0,Sydney,New South Wales,AU,-33.77697,150.89734,2148,Australia/Sydney
101.174.164.12,101.174.164.12,101.174.0.0,Sydney,New South Wales,AU,-33.8118,151.0424,2116,Australia/Sydney
1.186.161.16,1.186.161.255,1.186.0.0,Artist Village,Maharashtra,IN,19.03227,73.04276,400703,Asia/Kolkata
105.206.6.160,105.206.6.175,105.206.0.0,Sharm el-Sheikh,South Sinai,EG,27.91582,34.32995,,Africa/Cairo
101.108.165.124,101.108.165.165,101.108.0.0,Nakhon Pathom,Nakhon Pathom,TH,13.8196,100.04427,73000,Asia/Bangkok
1.196.204.208,1.196.204.212,1.196.0.0,Hangzhou,Zhejiang,CN,30.29365,120.16142,,Asia/Shanghai
105.201.229.136,105.201.229.143,105.201.0.0,Cairo,Cairo,EG,30.06263,31.24967,,Africa/Cairo
105.43.72.0,105.43.72.63,105.43.0.0,Abū Şīr,Giza,EG,29.88333,31.21667,,Africa/Cairo
105.105.14.202,105.105.14.203,105.105.0.0,El Aouinet,Tébessa,DZ,35.9533,8.1292,12003,Africa/Algiers
101.58.64.16,101.58.64.16,101.58.0.0,Bari,Apulia,IT,41.12066,16.86982,70100,Europe/Rome
1.49.233.208,1.49.233.247,1.49.0.0,Hangzhou,Zhejiang,CN,30.29365,120.16142,,Asia/Shanghai
102.45.187.201,102.45.187.202,102.45.0.0,Ţalkhā,Dakahlia,EG,31.0539,31.37787,,Africa/Cairo
102.147.46.112,102.147.46.113,102.147.0.0,Mumbwa,Central,ZM,-14.98293,27.0619,,Africa/Lusaka
1.206.116.5,1.206.116.8,1.206.0.0,Hangzhou,Zhejiang,CN,30.29365,120.16142,,Asia/Shanghai
105.69.148.39,105.69.148.39,105.69.0.0,Agadir,Souss-Massa,MA,30.42018,-9.59815,,Africa/Casablanca
105.48.153.184,105.48.153.191,105.48.0.0,Kapsabet,Nandi,KE,0.20387,35.105,,Africa/Nairobi
105.92.173.251,105.92.173.251,105.92.0.0,Cairo,Cairo,EG,30.06263,31.24967,,Africa/Cairo
102.147.53.64,102.147.53.255,102.147.0.0,Lusaka,Lusaka,ZM,-15.40669,28.28713,,Africa/Lusaka
101.162.76.168,101.162.76.169,101.162.0.0,Mackay,Queensland,AU,-21.15345,149.16554,9943,Australia/Brisbane
105.157.131.204,105.157.131.221,105.157.0.0,Meknès,Fès-Meknès,MA,33.89352,-5.54727,,Africa/Casablanca
105.92.203.224,105.92.203.255,105.92.0.0,Kawm Umbū,Aswan,EG,24.47669,32.94626,,Africa/Cairo
104.171.119.192,104.171.119.207,104.171.0.0,Winston-Salem,North Carolina,US,36.09986,-80.24422,27111,America/New_York
104.63.6.88,104.63.6.94,104.63.0.0,Portageville,Missouri,US,36.42534,-89.69953,63873,America/Chicago
104.158.167.0,104.158.167.127,104.158.0.0,Kitchener,Ontario,CA,43.4581,-80.4818,N2H,America/Toronto
102.16.17.53,102.16.17.53,102.16.0.0,Antsirabe,Vakinankaratra,MG,-19.86586,47.03333,,Indian/Antananarivo
1.42.226.184,1.42.226.191,1.42.0.0,Windang,New South Wales,AU,-34.5262,150.8534,2521,Australia/Sydney
1.156.196.228,1.156.196.255,1.156.0.0,Brisbane,Queensland,AU,-27.46794,153.02809,4000,Australia/Brisbane
102.78.224.56,102.78.224.63,102.78.0.0,Kasba Tadla,Béni Mellal-Khénifra,MA,32.5977,-6.26844,,Africa/Casablanca
103.73.155.142,103.73.155.142,103.73.0.0,Gurgaon,Haryana,IN,28.4601,77.02635,122004,Asia/Kolkata
105.165.114.128,105.165.114.255,105.165.0.0,Sotik Post,Bomet,KE,-0.78129,35.34156,,Africa/Nairobi
105.105.226.172,105.105.226.175,105.105.0.0,El Aouinet,Tébessa,DZ,35.9533,8.1292,12003,Africa/Algiers
102.188.154.124,102.188.154.127,102.188.0.0,Ţanţā,Gharbia,EG,30.78847,31.00192,,Africa/Cairo
1.20.41.212,1.20.41.223,1.20.0.0,Bangkok,Bangkok,TH,13.75398,100.50144,10200,Asia/Bangkok
1.40.60.64,1.40.60.123,1.40.0.0,Sydney,New South Wales,AU,-33.99527,151.14,2219,Australia/Sydney
102.78.10.128,102.78.10.143,102.78.0.0,Marrakesh,Marrakesh-Safi,MA,31.63416,-7.99994,,Africa/Casablanca
105.184.118.144,105.184.118.151,105.184.0.0,Cradock,Eastern Cape,ZA,-32.16422,25.61918,5365,Africa/Johannesburg
101.140.231.40,101.140.231.47,101.140.0.0,Higashiōmi,Shiga,JP,35.1039,136.26274,527-0162,Asia/Tokyo
102.166.28.0,102.166.28.111,102.166.0.0,Nairobi,Nairobi Area,KE,-1.28333,36.81667,,Africa/Nairobi
101.183.95.222,101.183.95.222,101.183.0.0,Newcastle,New South Wales,AU,-32.92953,151.7801,2300,Australia/Sydney
105.196.23.208,105.196.23.211,105.196.0.0,Ad Dilinjāt,Beheira,EG,30.82796,30.53552,,Africa/Cairo
102.78.164.168,102.78.164.175,102.78.0.0,Marrakesh,Marrakesh-Safi,MA,31.63416,-7.99994,,Africa/Casablanca
103.158.124.0,103.158.125.255,103.158.0.0,Tāngāil,Dhaka,BD,24.5793,89.9353,1991,Asia/Dhaka
101.30.193.80,101.30.193.80,101.30.0.0,Qingdao,Shandong,CN,36.06488,120.38042,,Asia/Shanghai
101.70.27.50,101.70.27.55,101.70.0.0,Tianjin,Tianjin,CN,39.14222,117.17667,,Asia/Shanghai
105.82.154.176,105.82.154.255,105.82.0.0,Qūş,Qena,EG,25.91544,32.76287,,Africa/Cairo
102.148.181.64,102.148.181.221,102.148.0.0,Lusaka,Lusaka,ZM,-15.40669,28.28713,,Africa/Lusaka
105.129.91.0,105.129.91.255,105.129.0.0,Kenitra,Rabat-Salé-Kénitra,MA,34.26101,-6.5802,,Africa/Casablanca
102.184.124.189,102.184.124.189,102.184.0.0,Asyūţ,Asyut,EG,27.18096,31.18368,,Africa/Cairo
105.38.23.224,105.38.23.255,105.38.0.0,Dayrūţ,Asyut,EG,27.55642,30.81057,,Africa/Cairo
104.176.223.0,104.176.223.255,104.176.0.0,San Jose,California,US,37.33939,-121.89496,95103,America/Los_Angeles
104.167.146.0,104.167.146.255,104.167.0.0,South Hill,New York,US,42.42924,-76.49494,14850,America/New_York
104.80.28.0,104.80.31.255,104.80.0.0,Frankfurt am Main,Hesse,DE,50.1025,8.6299,60326,Europe/Berlin
105.38.24.216,105.38.24.255,105.38.0.0,Cairo,Cairo,EG,30.06263,31.24967,,Africa/Cairo
101.65.220.16,101.65.220.19,101.65.0.0,Jinrongjie,Beijing,CN,39.91222,116.35615,,Asia/Shanghai
1.158.97.42,1.158.97.43,1.158.0.0,West Kempsey,New South Wales,AU,-31.05757,152.82794,2440,Australia/Sydney
101.179.110.162,101.179.110.162,101.179.0.0,Sunshine Coast,Queensland,AU,-26.65682,153.07955,4558,Australia/Brisbane
102.101.224.83,102.101.224.83,102.101.0.0,Oujda-Angad,Oriental,MA,34.68139,-1.90858,,Africa/Casablanca
102.159.30.148,102.159.30.151,102.159.0.0,Ezzouhour,Sūsah,TN,35.79014,10.58264,,Africa/Tunis
104.2.202.34,104.2.202.39,104.2.0.0,Rock Island,Illinois,US,41.50948,-90.57875,61201,America/Chicago
1.197.47.138,1.197.47.138,1.197.0.0,Nanjing,Jiangsu,CN,32.06167,118.77778,,Asia/Shanghai
103.130.20.0,103.130.21.255,103.130.0.0,Jiayi Shi,Taiwan,TW,23.47917,120.44889,,Asia/Taipei
102.159.127.148,102.159.127.149,102.159.0.0,Tunis,Tūnis,TN,36.81897,10.16579,,Africa/Tunis
105.40.42.128,105.40.43.159,105.40.0.0,Cairo,Cairo,EG,30.06263,31.24967,,Africa/Cairo
102.52.75.0,102.52.75.31,102.52.0.0,Sidi Slimane,Rabat-Salé-Kénitra,MA,34.26479,-5.92598,,Africa/Casablanca
105.168.150.0,105.168.150.31,105.168.0.0,Dundo,Luanda Norte,AO,-7.36643,20.81557,,Africa/Luanda
101.166.31.48,101.166.31.71,101.166.0.0,Sydney,New South Wales,AU,-33.8912,150.93532,2166,Australia/Sydney
104.193.227.250,104.193.227.253,104.193.0.0,Conroe,Texas,US,30.31188,-95.45605,77301,America/Chicago
101.69.11.112,101.69.11.127,101.69.0.0,Hangzhou,Zhejiang,CN,30.29365,120.16142,,Asia/Shanghai
105.34.199.192,105.34.199.207,105.34.0.0,Iţsā,Faiyum,EG,29.2376,30.78944,,Africa/Cairo
1.26.116.108,1.26.116.127,1.26.0.0,Beijing,Beijing,CN,39.9075,116.39723,,Asia/Shanghai
1.55.52.248,1.55.52.251,1.55.0.0,Hạ Long,Quảng Ninh,VN,20.95045,107.07336,01155,Asia/Bangkok
104.54.55.253,104.54.55.253,104.54.0.0,El Dorado,Kansas,US,37.81724,-96.86225,67042,America/Chicago
1.187.118.167,1.187.118.167,1.187.0.0,Delhi,Delhi,IN,28.65195,77.23149,110001,Asia/Kolkata
1.234.181.0,1.234.181.255,1.234.0.0,Gunpo,Gyeonggi-do,KR,37.3944,127.0022,16008,Asia/Seoul
102.1.254.112,102.1.254.123,102.1.0.0,Nairobi,Nairobi Area,KE,-1.28333,36.81667,,Africa/Nairobi
102.7.2.228,102.7.2.231,102.7.0.0,Makueni Boma,Makueni,KE,-1.80388,37.62405,,Africa/Nairobi
104.169.141.90,104.169.141.91,104.169.0.0,Harveysburg,Ohio,US,39.4145,-84.0511,45054,America/New_York
105.197.125.148,105.197.125.155,105.197.0.0,Alexandria,Alexandria,EG,31.20176,29.91582,,Africa/Cairo
105.189.6.84,105.189.6.87,105.189.0.0,Inezgane,Souss-Massa,MA,30.35535,-9.53639,,Africa/Casablanca
105.51.28.224,105.51.28.239,105.51.0.0,Embu,Embu,KE,-0.53987,37.45743,,Africa/Nairobi
105.101.162.0,105.101.162.255,105.101.0.0,Algiers,Algiers,DZ,36.6251,2.727,42012,Africa/Algiers
1.50.255.22,1.50.255.23,1.50.0.0,Guangzhou,Guangdong,CN,23.11667,113.25,,Asia/Shanghai
101.20.217.144,101.20.217.159,101.20.0.0,Shenyang,Liaoning,CN,41.79222,123.43278,,Asia/Shanghai
102.190.31.64,102.190.31.67,102.190.0.0,Dayrūţ,Asyut,EG,27.55642,30.81057,,Africa/Cairo
1.197.247.79,1.197.247.88,1.197.0.0,Hangzhou,Zhejiang,CN,30.29365,120.16142,,Asia/Shanghai
105.74.215.0,105.74.215.255,105.74.0.0,Paris,Île-de-France,FR,48.85341,2.3488,75000,Europe/Paris
101.183.146.118,101.183.146.119,101.183.0.0,Wondecla,Queensland,AU,-17.41667,145.4,4887,Australia/Brisbane
105.72.249.58,105.72.249.63,105.72.0.0,Casablanca,Casablanca-Settat,MA,33.58831,-7.61138,,Africa/Casablanca
1.206.241.7,1.206.241.22,1.206.0.0,Nanjing,Jiangsu,CN,32.06167,118.77778,,Asia/Shanghai
102.153.146.160,102.153.146.191,102.153.0.0,Sidi el Hani,Sūsah,TN,35.67139,10.31583,,Africa/Tunis
1.183.88.232,1.183.88.239,1.183.0.0,Beijing,Beijing,CN,39.9075,116.39723,,Asia/Shanghai
105.154.228.216,105.154.228.224,105.154.0.0,Fès,Fès-Meknès,MA,34.03313,-5.00028,,Africa/Casablanca
1.157.131.166,1.157.131.167,1.157.0.0,Merimbula,New South Wales,AU,-36.88901,149.90961,2548,Australia/Sydney
1.206.224.165,1.206.224.167,1.206.0.0,Nanjing,Jiangsu,CN,32.06167,118.77778,,Asia/Shanghai
105.185.172.0,105.185.172.255,105.185.0.0,Cape Town,Western Cape,ZA,-33.97779,18.51669,7764,Africa/Johannesburg
105.168.129.104,105.168.129.127,105.168.0.0,Luanda,Luanda,AO,-8.83682,13.23432,,Africa/Luanda
103.149.78.0,103.149.81.255,103.149.0.0,Jakarta,Jakarta,ID,-6.21462,106.84513,,Asia/Jakarta
1.82.102.177,1.82.102.187,1.82.0.0,Hangzhou,Zhejiang,CN,30.29365,120.16142,,Asia/Shanghai
1.193.191.152,1.193.191.152,1.193.0.0,Chengdu,Sichuan,CN,30.66667,104.06667,,Asia/Shanghai
101.109.33.60,101.109.33.61,101.109.0.0,Makham,Chanthaburi,TH,12.67292,102.19575,22150,Asia/Bangkok
105.161.194.96,105.161.194.103,105.161.0.0,Malindi,Kilifi,KE,-3.21799,40.11692,,Africa/Nairobi
1.1.119.184,1.1.119.191,1.1.0.0,Kumamoto,Kumamoto,JP,32.80589,130.69181,860-0003,Asia/Tokyo
105.72.221.96,105.72.221.103,105.72.0.0,Meknès,Fès-Meknès,MA,33.89352,-5.54727,,Africa/Casablanca
1.200.141.148,1.200.141.148,1.200.0.0,Yuanlin,Taiwan,TW,23.95671,120.57608,,Asia/Taipei
101.179.228.214,101.179.228.224,101.179.0.0,Sydney,New South Wales,AU,-33.8713,151.222,1335,Australia/Sydney
102.190.213.164,102.190.213.207,102.190.0.0,Cairo,Cairo,EG,30.06263,31.24967,,Africa/Cairo
101.109.7.40,101.109.7.55,101.109.0.0,Chon Buri,Chon Buri,TH,13.3622,100.98345,20160,Asia/Bangkok
102.109.31.224,102.109.31.239,102.109.0.0,As Sanad,Gafsa,TN,34.4628,9.26404,,Africa/Tunis
1.52.185.78,1.52.185.79,1.52.0.0,Ho Chi Minh City,Ho Chi Minh,VN,10.82302,106.62965,71606,Asia/Ho_Chi_Minh
105.250.33.128,105.250.33.217,105.250.0.0,Cape Town,Western Cape,ZA,-33.9164,18.4153,8000,Africa/Johannesburg
105.72.209.200,105.72.209.203,105.72.0.0,Tangier,Tanger-Tetouan-Al Hoceima,MA,35.76727,-5.79975,,Africa/Casablanca
1.20.10.144,1.20.10.159,1.20.0.0,Chiang Mai,Chiang Mai,TH,18.79038,98.98468,50000,Asia/Bangkok
101.189.221.68,101.189.221.72,101.189.0.0,Brisbane,Queensland,AU,-27.46794,153.02809,4000,Australia/Brisbane
1.53.246.0,1.53.246.2,1.53.0.0,Thủ Dầu Một,Bình Dương,VN,10.9804,106.6519,75150,Asia/Ho_Chi_Minh
101.176.37.216,101.176.37.235,101.176.0.0,Melbourne,Victoria,AU,-37.814,144.96332,3000,Australia/Melbourne
102.159.31.120,102.159.31.127,102.159.0.0,Sfax,Şafāqis,TN,34.74056,10.76028,,Africa/Tunis
1.42.50.184,1.42.50.187,1.42.0.0,North Arm Cove,New South Wales,AU,-32.73302,152.01567,2319,Australia/Sydney
1.189.134.54,1.189.134.55,1.189.0.0,Jinrongjie,Beijing,CN,39.91222,116.35615,,Asia/Shanghai
103.171.84.18,103.171.84.19,103.171.0.0,Jepara,Central Java,ID,-6.5924,110.671,,Asia/Jakarta
101.205.215.162,101.205.215.162,101.205.0.0,Chengdu,Sichuan,CN,30.66667,104.06667,,Asia/Shanghai
101.191.204.116,101.191.204.117,101.191.0.0,Sydney,New South Wales,AU,-33.8678,151.2073,1041,Australia/Sydney
103.171.5.128,103.171.5.135,103.171.0.0,Angul,Odisha,IN,20.84089,85.10192,754240,Asia/Kolkata
1.158.234.244,1.158.234.247,1.158.0.0,Culburra,South Australia,AU,-35.81337,139.96492,5261,Australia/Adelaide
1.84.70.64,1.84.70.65,1.84.0.0,Nanjing,Jiangsu,CN,32.06167,118.77778,,Asia/Shanghai
104.169.64.96,104.169.64.97,104.169.0.0,West Elkton,Ohio,US,39.58783,-84.55439,45070,America/New_York
1.158.113.46,1.158.113.47,1.158.0.0,North Haven,New South Wales,AU,-31.6368,152.81357,2443,Australia/Sydney
101.175.135.178,101.175.135.179,101.175.0.0,Kununurra,Western Australia,AU,-15.77825,128.74208,6743,Australia/Perth
105.244.20.84,105.244.20.87,105.244.0.0,Diepsloot,Gauteng,ZA,-25.9833,28.1167,1685,Africa/Johannesburg
